{
"type": "FeatureCollection",
"name": "amostra4",
"crs": { "type": "name", "properties": { "name": "urn:ogc:def:crs:OGC:1.3:CRS84" } },
"features": [
{ "type": "Feature", "properties": { "CLASSE": "PLANTIO" }, "geometry": { "type": "Point", "coordinates": [ -35.172749741306831, -8.008468978182741 ] } },
{ "type": "Feature", "properties": { "CLASSE": "PLANTIO" }, "geometry": { "type": "Point", "coordinates": [ -35.172779558050969, -8.008471412406845 ] } },
{ "type": "Feature", "properties": { "CLASSE": "PLANTIO" }, "geometry": { "type": "Point", "coordinates": [ -35.172775868921299, -8.008492041254261 ] } },
{ "type": "Feature", "properties": { "CLASSE": "PLANTIO" }, "geometry": { "type": "Point", "coordinates": [ -35.172770175295028, -8.008516363190108 ] } },
{ "type": "Feature", "properties": { "CLASSE": "PLANTIO" }, "geometry": { "type": "Point", "coordinates": [ -35.172764266763522, -8.008538360018939 ] } },
{ "type": "Feature", "properties": { "CLASSE": "PLANTIO" }, "geometry": { "type": "Point", "coordinates": [ -35.172792667277015, -8.008555874993174 ] } },
{ "type": "Feature", "properties": { "CLASSE": "PLANTIO" }, "geometry": { "type": "Point", "coordinates": [ -35.172759101001539, -8.008559668624898 ] } },
{ "type": "Feature", "properties": { "CLASSE": "PLANTIO" }, "geometry": { "type": "Point", "coordinates": [ -35.172786552757579, -8.008574850030517 ] } },
{ "type": "Feature", "properties": { "CLASSE": "PLANTIO" }, "geometry": { "type": "Point", "coordinates": [ -35.172751274145739, -8.008578623913195 ] } },
{ "type": "Feature", "properties": { "CLASSE": "PLANTIO" }, "geometry": { "type": "Point", "coordinates": [ -35.172776509475668, -8.0085949410736 ] } },
{ "type": "Feature", "properties": { "CLASSE": "PLANTIO" }, "geometry": { "type": "Point", "coordinates": [ -35.172766706352704, -8.008615383279775 ] } },
{ "type": "Feature", "properties": { "CLASSE": "PLANTIO" }, "geometry": { "type": "Point", "coordinates": [ -35.172650897504667, -8.008469231818435 ] } },
{ "type": "Feature", "properties": { "CLASSE": "PLANTIO" }, "geometry": { "type": "Point", "coordinates": [ -35.172587249085964, -8.008472213953421 ] } },
{ "type": "Feature", "properties": { "CLASSE": "PLANTIO" }, "geometry": { "type": "Point", "coordinates": [ -35.172683109914743, -8.008475642155375 ] } },
{ "type": "Feature", "properties": { "CLASSE": "PLANTIO" }, "geometry": { "type": "Point", "coordinates": [ -35.172618035385149, -8.008475356174493 ] } },
{ "type": "Feature", "properties": { "CLASSE": "PLANTIO" }, "geometry": { "type": "Point", "coordinates": [ -35.17271532232791, -8.008482052486848 ] } },
{ "type": "Feature", "properties": { "CLASSE": "PLANTIO" }, "geometry": { "type": "Point", "coordinates": [ -35.172745035067841, -8.008492614716154 ] } },
{ "type": "Feature", "properties": { "CLASSE": "PLANTIO" }, "geometry": { "type": "Point", "coordinates": [ -35.172646191251701, -8.008492868347954 ] } },
{ "type": "Feature", "properties": { "CLASSE": "PLANTIO" }, "geometry": { "type": "Point", "coordinates": [ -35.17258157326426, -8.008495142509666 ] } },
{ "type": "Feature", "properties": { "CLASSE": "PLANTIO" }, "geometry": { "type": "Point", "coordinates": [ -35.172679405914621, -8.008497432142406 ] } },
{ "type": "Feature", "properties": { "CLASSE": "PLANTIO" }, "geometry": { "type": "Point", "coordinates": [ -35.172611384064183, -8.008498041218555 ] } },
{ "type": "Feature", "properties": { "CLASSE": "PLANTIO" }, "geometry": { "type": "Point", "coordinates": [ -35.172711117207626, -8.008504765746874 ] } },
{ "type": "Feature", "properties": { "CLASSE": "PLANTIO" }, "geometry": { "type": "Point", "coordinates": [ -35.172740346656724, -8.00851485787793 ] } },
{ "type": "Feature", "properties": { "CLASSE": "PLANTIO" }, "geometry": { "type": "Point", "coordinates": [ -35.172642970540267, -8.00851512843321 ] } },
{ "type": "Feature", "properties": { "CLASSE": "PLANTIO" }, "geometry": { "type": "Point", "coordinates": [ -35.172574707036809, -8.00851550244521 ] } },
{ "type": "Feature", "properties": { "CLASSE": "PLANTIO" }, "geometry": { "type": "Point", "coordinates": [ -35.17267522456234, -8.008518287572716 ] } },
{ "type": "Feature", "properties": { "CLASSE": "PLANTIO" }, "geometry": { "type": "Point", "coordinates": [ -35.172604971416312, -8.008521193540471 ] } },
{ "type": "Feature", "properties": { "CLASSE": "PLANTIO" }, "geometry": { "type": "Point", "coordinates": [ -35.172705957383705, -8.008525609893759 ] } },
{ "type": "Feature", "properties": { "CLASSE": "PLANTIO" }, "geometry": { "type": "Point", "coordinates": [ -35.172734691655066, -8.008536160840872 ] } },
{ "type": "Feature", "properties": { "CLASSE": "PLANTIO" }, "geometry": { "type": "Point", "coordinates": [ -35.172636337050939, -8.008536420107028 ] } },
{ "type": "Feature", "properties": { "CLASSE": "PLANTIO" }, "geometry": { "type": "Point", "coordinates": [ -35.172566850444767, -8.008536780009134 ] } },
{ "type": "Feature", "properties": { "CLASSE": "PLANTIO" }, "geometry": { "type": "Point", "coordinates": [ -35.172671013491765, -8.008541465288232 ] } },
{ "type": "Feature", "properties": { "CLASSE": "PLANTIO" }, "geometry": { "type": "Point", "coordinates": [ -35.172596136352347, -8.008542459820923 ] } },
{ "type": "Feature", "properties": { "CLASSE": "PLANTIO" }, "geometry": { "type": "Point", "coordinates": [ -35.172699801252826, -8.008547836127057 ] } },
{ "type": "Feature", "properties": { "CLASSE": "PLANTIO" }, "geometry": { "type": "Point", "coordinates": [ -35.172727574881634, -8.008556982419726 ] } },
{ "type": "Feature", "properties": { "CLASSE": "PLANTIO" }, "geometry": { "type": "Point", "coordinates": [ -35.172627740665199, -8.00855815366759 ] } },
{ "type": "Feature", "properties": { "CLASSE": "PLANTIO" }, "geometry": { "type": "Point", "coordinates": [ -35.172661468351748, -8.008560865280643 ] } },
{ "type": "Feature", "properties": { "CLASSE": "PLANTIO" }, "geometry": { "type": "Point", "coordinates": [ -35.172588041086094, -8.008563270107512 ] } },
{ "type": "Feature", "properties": { "CLASSE": "PLANTIO" }, "geometry": { "type": "Point", "coordinates": [ -35.172690250172252, -8.00856770057834 ] } },
{ "type": "Feature", "properties": { "CLASSE": "PLANTIO" }, "geometry": { "type": "Point", "coordinates": [ -35.172717528622528, -8.008577305687574 ] } },
{ "type": "Feature", "properties": { "CLASSE": "PLANTIO" }, "geometry": { "type": "Point", "coordinates": [ -35.172620128696053, -8.008579434055402 ] } },
{ "type": "Feature", "properties": { "CLASSE": "PLANTIO" }, "geometry": { "type": "Point", "coordinates": [ -35.172651887548504, -8.008583052014774 ] } },
{ "type": "Feature", "properties": { "CLASSE": "PLANTIO" }, "geometry": { "type": "Point", "coordinates": [ -35.172580440998999, -8.008583621579056 ] } },
{ "type": "Feature", "properties": { "CLASSE": "PLANTIO" }, "geometry": { "type": "Point", "coordinates": [ -35.17268118238362, -8.008588035128312 ] } },
{ "type": "Feature", "properties": { "CLASSE": "PLANTIO" }, "geometry": { "type": "Point", "coordinates": [ -35.172709934493405, -8.008597192708848 ] } },
{ "type": "Feature", "properties": { "CLASSE": "PLANTIO" }, "geometry": { "type": "Point", "coordinates": [ -35.172741221944612, -8.008599411639572 ] } },
{ "type": "Feature", "properties": { "CLASSE": "PLANTIO" }, "geometry": { "type": "Point", "coordinates": [ -35.172609724409618, -8.008599056398428 ] } },
{ "type": "Feature", "properties": { "CLASSE": "PLANTIO" }, "geometry": { "type": "Point", "coordinates": [ -35.172571483618327, -8.008604886446903 ] } },
{ "type": "Feature", "properties": { "CLASSE": "PLANTIO" }, "geometry": { "type": "Point", "coordinates": [ -35.172671613467799, -8.00860929294933 ] } },
{ "type": "Feature", "properties": { "CLASSE": "PLANTIO" }, "geometry": { "type": "Point", "coordinates": [ -35.172700117989848, -8.008618679939079 ] } },
{ "type": "Feature", "properties": { "CLASSE": "PLANTIO" }, "geometry": { "type": "Point", "coordinates": [ -35.172600549158858, -8.00861822838991 ] } },
{ "type": "Feature", "properties": { "CLASSE": "PLANTIO" }, "geometry": { "type": "Point", "coordinates": [ -35.172732882073539, -8.008620219112835 ] } },
{ "type": "Feature", "properties": { "CLASSE": "PLANTIO" }, "geometry": { "type": "Point", "coordinates": [ -35.172559146147762, -8.008622628387489 ] } },
{ "type": "Feature", "properties": { "CLASSE": "PLANTIO" }, "geometry": { "type": "Point", "coordinates": [ -35.172663747966944, -8.008631267203615 ] } },
{ "type": "Feature", "properties": { "CLASSE": "PLANTIO" }, "geometry": { "type": "Point", "coordinates": [ -35.172397973643079, -8.008465385614663 ] } },
{ "type": "Feature", "properties": { "CLASSE": "PLANTIO" }, "geometry": { "type": "Point", "coordinates": [ -35.172424819286547, -8.008470572779931 ] } },
{ "type": "Feature", "properties": { "CLASSE": "PLANTIO" }, "geometry": { "type": "Point", "coordinates": [ -35.172487868502245, -8.008476177514179 ] } },
{ "type": "Feature", "properties": { "CLASSE": "PLANTIO" }, "geometry": { "type": "Point", "coordinates": [ -35.172525993360438, -8.008479404392975 ] } },
{ "type": "Feature", "properties": { "CLASSE": "PLANTIO" }, "geometry": { "type": "Point", "coordinates": [ -35.172555329777381, -8.008481136325333 ] } },
{ "type": "Feature", "properties": { "CLASSE": "PLANTIO" }, "geometry": { "type": "Point", "coordinates": [ -35.172454534972822, -8.008480902826143 ] } },
{ "type": "Feature", "properties": { "CLASSE": "PLANTIO" }, "geometry": { "type": "Point", "coordinates": [ -35.172388631487145, -8.008488039610871 ] } },
{ "type": "Feature", "properties": { "CLASSE": "PLANTIO" }, "geometry": { "type": "Point", "coordinates": [ -35.172417428139589, -8.008493713806921 ] } },
{ "type": "Feature", "properties": { "CLASSE": "PLANTIO" }, "geometry": { "type": "Point", "coordinates": [ -35.172480751701919, -8.008496999080815 ] } },
{ "type": "Feature", "properties": { "CLASSE": "PLANTIO" }, "geometry": { "type": "Point", "coordinates": [ -35.172516430377001, -8.008500197747782 ] } },
{ "type": "Feature", "properties": { "CLASSE": "PLANTIO" }, "geometry": { "type": "Point", "coordinates": [ -35.172550158047748, -8.008502909380159 ] } },
{ "type": "Feature", "properties": { "CLASSE": "PLANTIO" }, "geometry": { "type": "Point", "coordinates": [ -35.172445944511615, -8.00850217191924 ] } },
{ "type": "Feature", "properties": { "CLASSE": "PLANTIO" }, "geometry": { "type": "Point", "coordinates": [ -35.172378614914216, -8.008506040571628 ] } },
{ "type": "Feature", "properties": { "CLASSE": "PLANTIO" }, "geometry": { "type": "Point", "coordinates": [ -35.172407880002304, -8.008513346012098 ] } },
{ "type": "Feature", "properties": { "CLASSE": "PLANTIO" }, "geometry": { "type": "Point", "coordinates": [ -35.172471683893257, -8.008517333618418 ] } },
{ "type": "Feature", "properties": { "CLASSE": "PLANTIO" }, "geometry": { "type": "Point", "coordinates": [ -35.1725073566285, -8.008520996744576 ] } },
{ "type": "Feature", "properties": { "CLASSE": "PLANTIO" }, "geometry": { "type": "Point", "coordinates": [ -35.172436888586567, -8.00852157754063 ] } },
{ "type": "Feature", "properties": { "CLASSE": "PLANTIO" }, "geometry": { "type": "Point", "coordinates": [ -35.172541579484509, -8.008523249564671 ] } },
{ "type": "Feature", "properties": { "CLASSE": "PLANTIO" }, "geometry": { "type": "Point", "coordinates": [ -35.172398090215829, -8.008532743166466 ] } },
{ "type": "Feature", "properties": { "CLASSE": "PLANTIO" }, "geometry": { "type": "Point", "coordinates": [ -35.172462120900533, -8.00853812696942 ] } },
{ "type": "Feature", "properties": { "CLASSE": "PLANTIO" }, "geometry": { "type": "Point", "coordinates": [ -35.172500752841174, -8.008539966126609 ] } },
{ "type": "Feature", "properties": { "CLASSE": "PLANTIO" }, "geometry": { "type": "Point", "coordinates": [ -35.172427814826939, -8.008542376532379 ] } },
{ "type": "Feature", "properties": { "CLASSE": "PLANTIO" }, "geometry": { "type": "Point", "coordinates": [ -35.172531998668454, -8.008545436291254 ] } },
{ "type": "Feature", "properties": { "CLASSE": "PLANTIO" }, "geometry": { "type": "Point", "coordinates": [ -35.172388067696438, -8.008551208584496 ] } },
{ "type": "Feature", "properties": { "CLASSE": "PLANTIO" }, "geometry": { "type": "Point", "coordinates": [ -35.172557761840572, -8.008558740151408 ] } },
{ "type": "Feature", "properties": { "CLASSE": "PLANTIO" }, "geometry": { "type": "Point", "coordinates": [ -35.172453554212552, -8.008557538234484 ] } },
{ "type": "Feature", "properties": { "CLASSE": "PLANTIO" }, "geometry": { "type": "Point", "coordinates": [ -35.172490199487136, -8.008561677107689 ] } },
{ "type": "Feature", "properties": { "CLASSE": "PLANTIO" }, "geometry": { "type": "Point", "coordinates": [ -35.172523933113283, -8.008563924289017 ] } },
{ "type": "Feature", "properties": { "CLASSE": "PLANTIO" }, "geometry": { "type": "Point", "coordinates": [ -35.172418499418008, -8.008562940473368 ] } },
{ "type": "Feature", "properties": { "CLASSE": "PLANTIO" }, "geometry": { "type": "Point", "coordinates": [ -35.172379849642049, -8.008562494669299 ] } },
{ "type": "Feature", "properties": { "CLASSE": "PLANTIO" }, "geometry": { "type": "Point", "coordinates": [ -35.17237314388143, -8.008570314255682 ] } },
{ "type": "Feature", "properties": { "CLASSE": "PLANTIO" }, "geometry": { "type": "Point", "coordinates": [ -35.172549917131256, -8.008579088800015 ] } },
{ "type": "Feature", "properties": { "CLASSE": "PLANTIO" }, "geometry": { "type": "Point", "coordinates": [ -35.172443257358161, -8.008578323119544 ] } },
{ "type": "Feature", "properties": { "CLASSE": "PLANTIO" }, "geometry": { "type": "Point", "coordinates": [ -35.172480176975469, -8.008580142531535 ] } },
{ "type": "Feature", "properties": { "CLASSE": "PLANTIO" }, "geometry": { "type": "Point", "coordinates": [ -35.172513868998074, -8.008585640914312 ] } },
{ "type": "Feature", "properties": { "CLASSE": "PLANTIO" }, "geometry": { "type": "Point", "coordinates": [ -35.172396377634747, -8.008590092319896 ] } },
{ "type": "Feature", "properties": { "CLASSE": "PLANTIO" }, "geometry": { "type": "Point", "coordinates": [ -35.172429565556911, -8.008596746217609 ] } },
{ "type": "Feature", "properties": { "CLASSE": "PLANTIO" }, "geometry": { "type": "Point", "coordinates": [ -35.172539638118202, -8.008598480320387 ] } },
{ "type": "Feature", "properties": { "CLASSE": "PLANTIO" }, "geometry": { "type": "Point", "coordinates": [ -35.172466228671013, -8.008599491725313 ] } },
{ "type": "Feature", "properties": { "CLASSE": "PLANTIO" }, "geometry": { "type": "Point", "coordinates": [ -35.172501158651087, -8.008603843075491 ] } },
{ "type": "Feature", "properties": { "CLASSE": "PLANTIO" }, "geometry": { "type": "Point", "coordinates": [ -35.172415151784016, -8.008614231935709 ] } },
{ "type": "Feature", "properties": { "CLASSE": "PLANTIO" }, "geometry": { "type": "Point", "coordinates": [ -35.17237148730851, -8.008613728287298 ] } },
{ "type": "Feature", "properties": { "CLASSE": "PLANTIO" }, "geometry": { "type": "Point", "coordinates": [ -35.172527664601468, -8.008616458719128 ] } },
{ "type": "Feature", "properties": { "CLASSE": "PLANTIO" }, "geometry": { "type": "Point", "coordinates": [ -35.172453264782881, -8.008618387746594 ] } },
{ "type": "Feature", "properties": { "CLASSE": "PLANTIO" }, "geometry": { "type": "Point", "coordinates": [ -35.17248892565118, -8.008622979792396 ] } },
{ "type": "Feature", "properties": { "CLASSE": "PLANTIO" }, "geometry": { "type": "Point", "coordinates": [ -35.172364592561102, -8.008473826566124 ] } },
{ "type": "Feature", "properties": { "CLASSE": "PLANTIO" }, "geometry": { "type": "Point", "coordinates": [ -35.172328854454371, -8.008475272440105 ] } },
{ "type": "Feature", "properties": { "CLASSE": "PLANTIO" }, "geometry": { "type": "Point", "coordinates": [ -35.172284769589957, -8.008478944654737 ] } },
{ "type": "Feature", "properties": { "CLASSE": "PLANTIO" }, "geometry": { "type": "Point", "coordinates": [ -35.172356586434887, -8.008487669985218 ] } },
{ "type": "Feature", "properties": { "CLASSE": "PLANTIO" }, "geometry": { "type": "Point", "coordinates": [ -35.172313474097514, -8.008491817949899 ] } },
{ "type": "Feature", "properties": { "CLASSE": "PLANTIO" }, "geometry": { "type": "Point", "coordinates": [ -35.172266984653177, -8.008492210744475 ] } },
{ "type": "Feature", "properties": { "CLASSE": "PLANTIO" }, "geometry": { "type": "Point", "coordinates": [ -35.17224831040734, -8.008498498690852 ] } },
{ "type": "Feature", "properties": { "CLASSE": "PLANTIO" }, "geometry": { "type": "Point", "coordinates": [ -35.172345609216606, -8.008504266286508 ] } },
{ "type": "Feature", "properties": { "CLASSE": "PLANTIO" }, "geometry": { "type": "Point", "coordinates": [ -35.172294698797423, -8.008506001669755 ] } },
{ "type": "Feature", "properties": { "CLASSE": "PLANTIO" }, "geometry": { "type": "Point", "coordinates": [ -35.172274479559682, -8.008518310629263 ] } },
{ "type": "Feature", "properties": { "CLASSE": "PLANTIO" }, "geometry": { "type": "Point", "coordinates": [ -35.17233463199598, -8.008520862586867 ] } },
{ "type": "Feature", "properties": { "CLASSE": "PLANTIO" }, "geometry": { "type": "Point", "coordinates": [ -35.172368837013465, -8.008524508810179 ] } },
{ "type": "Feature", "properties": { "CLASSE": "PLANTIO" }, "geometry": { "type": "Point", "coordinates": [ -35.172252852052196, -8.00852595808621 ] } },
{ "type": "Feature", "properties": { "CLASSE": "PLANTIO" }, "geometry": { "type": "Point", "coordinates": [ -35.172322240559737, -8.008533261843667 ] } },
{ "type": "Feature", "properties": { "CLASSE": "PLANTIO" }, "geometry": { "type": "Point", "coordinates": [ -35.172353904282694, -8.008544311165334 ] } },
{ "type": "Feature", "properties": { "CLASSE": "PLANTIO" }, "geometry": { "type": "Point", "coordinates": [ -35.172306436347327, -8.008544692682175 ] } },
{ "type": "Feature", "properties": { "CLASSE": "PLANTIO" }, "geometry": { "type": "Point", "coordinates": [ -35.172285256463518, -8.008555596984881 ] } },
{ "type": "Feature", "properties": { "CLASSE": "PLANTIO" }, "geometry": { "type": "Point", "coordinates": [ -35.172337068096702, -8.008559910833029 ] } },
{ "type": "Feature", "properties": { "CLASSE": "PLANTIO" }, "geometry": { "type": "Point", "coordinates": [ -35.172262208794869, -8.008559511856618 ] } },
{ "type": "Feature", "properties": { "CLASSE": "PLANTIO" }, "geometry": { "type": "Point", "coordinates": [ -35.172319790225032, -8.008571789199717 ] } },
{ "type": "Feature", "properties": { "CLASSE": "PLANTIO" }, "geometry": { "type": "Point", "coordinates": [ -35.172298628171625, -8.008581300132779 ] } },
{ "type": "Feature", "properties": { "CLASSE": "PLANTIO" }, "geometry": { "type": "Point", "coordinates": [ -35.172356567173765, -8.008584755604158 ] } },
{ "type": "Feature", "properties": { "CLASSE": "PLANTIO" }, "geometry": { "type": "Point", "coordinates": [ -35.172276040014523, -8.00858754293413 ] } },
{ "type": "Feature", "properties": { "CLASSE": "PLANTIO" }, "geometry": { "type": "Point", "coordinates": [ -35.172253517246489, -8.008588676705994 ] } },
{ "type": "Feature", "properties": { "CLASSE": "PLANTIO" }, "geometry": { "type": "Point", "coordinates": [ -35.172336127088201, -8.008595203920397 ] } },
{ "type": "Feature", "properties": { "CLASSE": "PLANTIO" }, "geometry": { "type": "Point", "coordinates": [ -35.172314007362338, -8.008603077969092 ] } },
{ "type": "Feature", "properties": { "CLASSE": "PLANTIO" }, "geometry": { "type": "Point", "coordinates": [ -35.172292388761363, -8.008610028744332 ] } },
{ "type": "Feature", "properties": { "CLASSE": "PLANTIO" }, "geometry": { "type": "Point", "coordinates": [ -35.172268601283797, -8.008614399608025 ] } },
{ "type": "Feature", "properties": { "CLASSE": "PLANTIO" }, "geometry": { "type": "Point", "coordinates": [ -35.172245329793874, -8.008616686055721 ] } },
{ "type": "Feature", "properties": { "CLASSE": "PLANTIO" }, "geometry": { "type": "Point", "coordinates": [ -35.172351939052071, -8.008621399738679 ] } },
{ "type": "Feature", "properties": { "CLASSE": "PLANTIO" }, "geometry": { "type": "Point", "coordinates": [ -35.172758364997918, -8.008636306868677 ] } },
{ "type": "Feature", "properties": { "CLASSE": "PLANTIO" }, "geometry": { "type": "Point", "coordinates": [ -35.172787642018086, -8.008642683337609 ] } },
{ "type": "Feature", "properties": { "CLASSE": "PLANTIO" }, "geometry": { "type": "Point", "coordinates": [ -35.172748802031414, -8.00865710023724 ] } },
{ "type": "Feature", "properties": { "CLASSE": "PLANTIO" }, "geometry": { "type": "Point", "coordinates": [ -35.172778311787454, -8.008664408443273 ] } },
{ "type": "Feature", "properties": { "CLASSE": "PLANTIO" }, "geometry": { "type": "Point", "coordinates": [ -35.172769476735418, -8.008685674733218 ] } },
{ "type": "Feature", "properties": { "CLASSE": "PLANTIO" }, "geometry": { "type": "Point", "coordinates": [ -35.172793680118403, -8.008706160722525 ] } },
{ "type": "Feature", "properties": { "CLASSE": "PLANTIO" }, "geometry": { "type": "Point", "coordinates": [ -35.172758457938507, -8.008705522261415 ] } },
{ "type": "Feature", "properties": { "CLASSE": "PLANTIO" }, "geometry": { "type": "Point", "coordinates": [ -35.172745959537458, -8.008726281776248 ] } },
{ "type": "Feature", "properties": { "CLASSE": "PLANTIO" }, "geometry": { "type": "Point", "coordinates": [ -35.172783368435915, -8.008728106772445 ] } },
{ "type": "Feature", "properties": { "CLASSE": "PLANTIO" }, "geometry": { "type": "Point", "coordinates": [ -35.172770905694925, -8.008746079546448 ] } },
{ "type": "Feature", "properties": { "CLASSE": "PLANTIO" }, "geometry": { "type": "Point", "coordinates": [ -35.172755395611844, -8.00876320425574 ] } },
{ "type": "Feature", "properties": { "CLASSE": "PLANTIO" }, "geometry": { "type": "Point", "coordinates": [ -35.172782741433636, -8.008777106997204 ] } },
{ "type": "Feature", "properties": { "CLASSE": "PLANTIO" }, "geometry": { "type": "Point", "coordinates": [ -35.172745392429412, -8.008780160209891 ] } },
{ "type": "Feature", "properties": { "CLASSE": "PLANTIO" }, "geometry": { "type": "Point", "coordinates": [ -35.172769046677288, -8.008795762350982 ] } },
{ "type": "Feature", "properties": { "CLASSE": "PLANTIO" }, "geometry": { "type": "Point", "coordinates": [ -35.172691285902843, -8.008639713996061 ] } },
{ "type": "Feature", "properties": { "CLASSE": "PLANTIO" }, "geometry": { "type": "Point", "coordinates": [ -35.172723563724098, -8.008641015301002 ] } },
{ "type": "Feature", "properties": { "CLASSE": "PLANTIO" }, "geometry": { "type": "Point", "coordinates": [ -35.172589017335383, -8.008639928092169 ] } },
{ "type": "Feature", "properties": { "CLASSE": "PLANTIO" }, "geometry": { "type": "Point", "coordinates": [ -35.172651986390001, -8.008651802946645 ] } },
{ "type": "Feature", "properties": { "CLASSE": "PLANTIO" }, "geometry": { "type": "Point", "coordinates": [ -35.172682713290875, -8.008659589730829 ] } },
{ "type": "Feature", "properties": { "CLASSE": "PLANTIO" }, "geometry": { "type": "Point", "coordinates": [ -35.172576053456794, -8.008658824123128 ] } },
{ "type": "Feature", "properties": { "CLASSE": "PLANTIO" }, "geometry": { "type": "Point", "coordinates": [ -35.172715468467231, -8.00866182559411 ] } },
{ "type": "Feature", "properties": { "CLASSE": "PLANTIO" }, "geometry": { "type": "Point", "coordinates": [ -35.17264047834427, -8.008671644824222 ] } },
{ "type": "Feature", "properties": { "CLASSE": "PLANTIO" }, "geometry": { "type": "Point", "coordinates": [ -35.172739716413894, -8.00867882816144 ] } },
{ "type": "Feature", "properties": { "CLASSE": "PLANTIO" }, "geometry": { "type": "Point", "coordinates": [ -35.172562856843548, -8.008676788417418 ] } },
{ "type": "Feature", "properties": { "CLASSE": "PLANTIO" }, "geometry": { "type": "Point", "coordinates": [ -35.1726702267718, -8.008679420325837 ] } },
{ "type": "Feature", "properties": { "CLASSE": "PLANTIO" }, "geometry": { "type": "Point", "coordinates": [ -35.17270396042791, -8.008681667476345 ] } },
{ "type": "Feature", "properties": { "CLASSE": "PLANTIO" }, "geometry": { "type": "Point", "coordinates": [ -35.172624071970738, -8.008691894732667 ] } },
{ "type": "Feature", "properties": { "CLASSE": "PLANTIO" }, "geometry": { "type": "Point", "coordinates": [ -35.17273066645339, -8.008697769342355 ] } },
{ "type": "Feature", "properties": { "CLASSE": "PLANTIO" }, "geometry": { "type": "Point", "coordinates": [ -35.172656791490667, -8.008696917349461 ] } },
{ "type": "Feature", "properties": { "CLASSE": "PLANTIO" }, "geometry": { "type": "Point", "coordinates": [ -35.172690990614505, -8.008701027973416 ] } },
{ "type": "Feature", "properties": { "CLASSE": "PLANTIO" }, "geometry": { "type": "Point", "coordinates": [ -35.172612599580191, -8.008708949865479 ] } },
{ "type": "Feature", "properties": { "CLASSE": "PLANTIO" }, "geometry": { "type": "Point", "coordinates": [ -35.172642849137773, -8.008715802100483 ] } },
{ "type": "Feature", "properties": { "CLASSE": "PLANTIO" }, "geometry": { "type": "Point", "coordinates": [ -35.172715721858552, -8.008718500643614 ] } },
{ "type": "Feature", "properties": { "CLASSE": "PLANTIO" }, "geometry": { "type": "Point", "coordinates": [ -35.172677561276849, -8.008718060541476 ] } },
{ "type": "Feature", "properties": { "CLASSE": "PLANTIO" }, "geometry": { "type": "Point", "coordinates": [ -35.172599182121601, -8.008725053512805 ] } },
{ "type": "Feature", "properties": { "CLASSE": "PLANTIO" }, "geometry": { "type": "Point", "coordinates": [ -35.172629396019822, -8.008734692492627 ] } },
{ "type": "Feature", "properties": { "CLASSE": "PLANTIO" }, "geometry": { "type": "Point", "coordinates": [ -35.172700329625158, -8.008735975101342 ] } },
{ "type": "Feature", "properties": { "CLASSE": "PLANTIO" }, "geometry": { "type": "Point", "coordinates": [ -35.172664096275447, -8.008737879850685 ] } },
{ "type": "Feature", "properties": { "CLASSE": "PLANTIO" }, "geometry": { "type": "Point", "coordinates": [ -35.172732548032613, -8.008741920977389 ] } },
{ "type": "Feature", "properties": { "CLASSE": "PLANTIO" }, "geometry": { "type": "Point", "coordinates": [ -35.172587190769192, -8.008744425286132 ] } },
{ "type": "Feature", "properties": { "CLASSE": "PLANTIO" }, "geometry": { "type": "Point", "coordinates": [ -35.172688362056732, -8.00875348905404 ] } },
{ "type": "Feature", "properties": { "CLASSE": "PLANTIO" }, "geometry": { "type": "Point", "coordinates": [ -35.172614952534786, -8.008754500512453 ] } },
{ "type": "Feature", "properties": { "CLASSE": "PLANTIO" }, "geometry": { "type": "Point", "coordinates": [ -35.17265114428308, -8.008755846972747 ] } },
{ "type": "Feature", "properties": { "CLASSE": "PLANTIO" }, "geometry": { "type": "Point", "coordinates": [ -35.172575258851197, -8.008759152487919 ] } },
{ "type": "Feature", "properties": { "CLASSE": "PLANTIO" }, "geometry": { "type": "Point", "coordinates": [ -35.172718847330984, -8.008761040784282 ] } },
{ "type": "Feature", "properties": { "CLASSE": "PLANTIO" }, "geometry": { "type": "Point", "coordinates": [ -35.172674920827042, -8.008771450535534 ] } },
{ "type": "Feature", "properties": { "CLASSE": "PLANTIO" }, "geometry": { "type": "Point", "coordinates": [ -35.172602257042413, -8.008771541537563 ] } },
{ "type": "Feature", "properties": { "CLASSE": "PLANTIO" }, "geometry": { "type": "Point", "coordinates": [ -35.172637691162244, -8.008774737365208 ] } },
{ "type": "Feature", "properties": { "CLASSE": "PLANTIO" }, "geometry": { "type": "Point", "coordinates": [ -35.172560108247119, -8.008776861981822 ] } },
{ "type": "Feature", "properties": { "CLASSE": "PLANTIO" }, "geometry": { "type": "Point", "coordinates": [ -35.172705146626036, -8.008780160589801 ] } },
{ "type": "Feature", "properties": { "CLASSE": "PLANTIO" }, "geometry": { "type": "Point", "coordinates": [ -35.172661461763795, -8.008790805386933 ] } },
{ "type": "Feature", "properties": { "CLASSE": "PLANTIO" }, "geometry": { "type": "Point", "coordinates": [ -35.172588080458745, -8.008789610661943 ] } },
{ "type": "Feature", "properties": { "CLASSE": "PLANTIO" }, "geometry": { "type": "Point", "coordinates": [ -35.172623032772982, -8.008792220278806 ] } },
{ "type": "Feature", "properties": { "CLASSE": "PLANTIO" }, "geometry": { "type": "Point", "coordinates": [ -35.172692433309841, -8.008798594993092 ] } },
{ "type": "Feature", "properties": { "CLASSE": "PLANTIO" }, "geometry": { "type": "Point", "coordinates": [ -35.172729854109569, -8.008799491087569 ] } },
{ "type": "Feature", "properties": { "CLASSE": "PLANTIO" }, "geometry": { "type": "Point", "coordinates": [ -35.172571378462294, -8.008804282847194 ] } },
{ "type": "Feature", "properties": { "CLASSE": "PLANTIO" }, "geometry": { "type": "Point", "coordinates": [ -35.172648515709916, -8.008808308051222 ] } },
{ "type": "Feature", "properties": { "CLASSE": "PLANTIO" }, "geometry": { "type": "Point", "coordinates": [ -35.17239854832593, -8.00863076334436 ] } },
{ "type": "Feature", "properties": { "CLASSE": "PLANTIO" }, "geometry": { "type": "Point", "coordinates": [ -35.172514712606151, -8.008634425831211 ] } },
{ "type": "Feature", "properties": { "CLASSE": "PLANTIO" }, "geometry": { "type": "Point", "coordinates": [ -35.172438856954258, -8.008635409009589 ] } },
{ "type": "Feature", "properties": { "CLASSE": "PLANTIO" }, "geometry": { "type": "Point", "coordinates": [ -35.172475508189308, -8.0086390834303 ] } },
{ "type": "Feature", "properties": { "CLASSE": "PLANTIO" }, "geometry": { "type": "Point", "coordinates": [ -35.172545433551143, -8.008642677094695 ] } },
{ "type": "Feature", "properties": { "CLASSE": "PLANTIO" }, "geometry": { "type": "Point", "coordinates": [ -35.1723795640617, -8.008642157508465 ] } },
{ "type": "Feature", "properties": { "CLASSE": "PLANTIO" }, "geometry": { "type": "Point", "coordinates": [ -35.172500281006144, -8.00865330492762 ] } },
{ "type": "Feature", "properties": { "CLASSE": "PLANTIO" }, "geometry": { "type": "Point", "coordinates": [ -35.172422981408751, -8.008652413341977 ] } },
{ "type": "Feature", "properties": { "CLASSE": "PLANTIO" }, "geometry": { "type": "Point", "coordinates": [ -35.172461577710685, -8.008657039252029 ] } },
{ "type": "Feature", "properties": { "CLASSE": "PLANTIO" }, "geometry": { "type": "Point", "coordinates": [ -35.172531998261086, -8.008660174108197 ] } },
{ "type": "Feature", "properties": { "CLASSE": "PLANTIO" }, "geometry": { "type": "Point", "coordinates": [ -35.172403248425844, -8.008664960186355 ] } },
{ "type": "Feature", "properties": { "CLASSE": "PLANTIO" }, "geometry": { "type": "Point", "coordinates": [ -35.172487830130635, -8.008670348765971 ] } },
{ "type": "Feature", "properties": { "CLASSE": "PLANTIO" }, "geometry": { "type": "Point", "coordinates": [ -35.172444735577116, -8.008673103386379 ] } },
{ "type": "Feature", "properties": { "CLASSE": "PLANTIO" }, "geometry": { "type": "Point", "coordinates": [ -35.17238259046232, -8.008673315629025 ] } },
{ "type": "Feature", "properties": { "CLASSE": "PLANTIO" }, "geometry": { "type": "Point", "coordinates": [ -35.172519529556446, -8.008678611320061 ] } },
{ "type": "Feature", "properties": { "CLASSE": "PLANTIO" }, "geometry": { "type": "Point", "coordinates": [ -35.172474884070382, -8.008687851417303 ] } },
{ "type": "Feature", "properties": { "CLASSE": "PLANTIO" }, "geometry": { "type": "Point", "coordinates": [ -35.172425453194123, -8.008688674846574 ] } },
{ "type": "Feature", "properties": { "CLASSE": "PLANTIO" }, "geometry": { "type": "Point", "coordinates": [ -35.172549654283522, -8.008695217167492 ] } },
{ "type": "Feature", "properties": { "CLASSE": "PLANTIO" }, "geometry": { "type": "Point", "coordinates": [ -35.172504620602268, -8.008696555859544 ] } },
{ "type": "Feature", "properties": { "CLASSE": "PLANTIO" }, "geometry": { "type": "Point", "coordinates": [ -35.172407226558249, -8.008698219649609 ] } },
{ "type": "Feature", "properties": { "CLASSE": "PLANTIO" }, "geometry": { "type": "Point", "coordinates": [ -35.172384596777491, -8.008707713662147 ] } },
{ "type": "Feature", "properties": { "CLASSE": "PLANTIO" }, "geometry": { "type": "Point", "coordinates": [ -35.17253521673733, -8.008714560723437 ] } },
{ "type": "Feature", "properties": { "CLASSE": "PLANTIO" }, "geometry": { "type": "Point", "coordinates": [ -35.172489717588725, -8.00871403594045 ] } },
{ "type": "Feature", "properties": { "CLASSE": "PLANTIO" }, "geometry": { "type": "Point", "coordinates": [ -35.172415926756479, -8.008725727009786 ] } },
{ "type": "Feature", "properties": { "CLASSE": "PLANTIO" }, "geometry": { "type": "Point", "coordinates": [ -35.172472887339254, -8.008729171162972 ] } },
{ "type": "Feature", "properties": { "CLASSE": "PLANTIO" }, "geometry": { "type": "Point", "coordinates": [ -35.172519830430623, -8.008731570707134 ] } },
{ "type": "Feature", "properties": { "CLASSE": "PLANTIO" }, "geometry": { "type": "Point", "coordinates": [ -35.172393076130056, -8.008733360373522 ] } },
{ "type": "Feature", "properties": { "CLASSE": "PLANTIO" }, "geometry": { "type": "Point", "coordinates": [ -35.172453175154033, -8.008740092412619 ] } },
{ "type": "Feature", "properties": { "CLASSE": "PLANTIO" }, "geometry": { "type": "Point", "coordinates": [ -35.17250347753204, -8.008747640489428 ] } },
{ "type": "Feature", "properties": { "CLASSE": "PLANTIO" }, "geometry": { "type": "Point", "coordinates": [ -35.172430545369323, -8.008749586430525 ] } },
{ "type": "Feature", "properties": { "CLASSE": "PLANTIO" }, "geometry": { "type": "Point", "coordinates": [ -35.172407697712039, -8.008756987567345 ] } },
{ "type": "Feature", "properties": { "CLASSE": "PLANTIO" }, "geometry": { "type": "Point", "coordinates": [ -35.172485185509046, -8.008762294327219 ] } },
{ "type": "Feature", "properties": { "CLASSE": "PLANTIO" }, "geometry": { "type": "Point", "coordinates": [ -35.172386795117504, -8.008765340187789 ] } },
{ "type": "Feature", "properties": { "CLASSE": "PLANTIO" }, "geometry": { "type": "Point", "coordinates": [ -35.172464050185773, -8.008769715221348 ] } },
{ "type": "Feature", "properties": { "CLASSE": "PLANTIO" }, "geometry": { "type": "Point", "coordinates": [ -35.172440498389825, -8.008774785612655 ] } },
{ "type": "Feature", "properties": { "CLASSE": "PLANTIO" }, "geometry": { "type": "Point", "coordinates": [ -35.172418741113162, -8.008783012247147 ] } },
{ "type": "Feature", "properties": { "CLASSE": "PLANTIO" }, "geometry": { "type": "Point", "coordinates": [ -35.172541079395543, -8.008791739589782 ] } },
{ "type": "Feature", "properties": { "CLASSE": "PLANTIO" }, "geometry": { "type": "Point", "coordinates": [ -35.172397941506375, -8.008792875764577 ] } },
{ "type": "Feature", "properties": { "CLASSE": "PLANTIO" }, "geometry": { "type": "Point", "coordinates": [ -35.172522307047608, -8.008805691102776 ] } },
{ "type": "Feature", "properties": { "CLASSE": "PLANTIO" }, "geometry": { "type": "Point", "coordinates": [ -35.172377728181914, -8.008804720275588 ] } },
{ "type": "Feature", "properties": { "CLASSE": "PLANTIO" }, "geometry": { "type": "Point", "coordinates": [ -35.172329321168675, -8.008629964831169 ] } },
{ "type": "Feature", "properties": { "CLASSE": "PLANTIO" }, "geometry": { "type": "Point", "coordinates": [ -35.172306721116534, -8.008637136549726 ] } },
{ "type": "Feature", "properties": { "CLASSE": "PLANTIO" }, "geometry": { "type": "Point", "coordinates": [ -35.172284628134136, -8.008642920537792 ] } },
{ "type": "Feature", "properties": { "CLASSE": "PLANTIO" }, "geometry": { "type": "Point", "coordinates": [ -35.172259152097425, -8.008645413819959 ] } },
{ "type": "Feature", "properties": { "CLASSE": "PLANTIO" }, "geometry": { "type": "Point", "coordinates": [ -35.172357423525689, -8.00865165716143 ] } },
{ "type": "Feature", "properties": { "CLASSE": "PLANTIO" }, "geometry": { "type": "Point", "coordinates": [ -35.172334328289018, -8.008659287696972 ] } },
{ "type": "Feature", "properties": { "CLASSE": "PLANTIO" }, "geometry": { "type": "Point", "coordinates": [ -35.172312682930965, -8.00866832853033 ] } },
{ "type": "Feature", "properties": { "CLASSE": "PLANTIO" }, "geometry": { "type": "Point", "coordinates": [ -35.172289629302007, -8.008672707861038 ] } },
{ "type": "Feature", "properties": { "CLASSE": "PLANTIO" }, "geometry": { "type": "Point", "coordinates": [ -35.172264171094383, -8.008673807772588 ] } },
{ "type": "Feature", "properties": { "CLASSE": "PLANTIO" }, "geometry": { "type": "Point", "coordinates": [ -35.17235994879541, -8.008683738552694 ] } },
{ "type": "Feature", "properties": { "CLASSE": "PLANTIO" }, "geometry": { "type": "Point", "coordinates": [ -35.172339305688702, -8.008690932847585 ] } },
{ "type": "Feature", "properties": { "CLASSE": "PLANTIO" }, "geometry": { "type": "Point", "coordinates": [ -35.172318173342347, -8.008698121496607 ] } },
{ "type": "Feature", "properties": { "CLASSE": "PLANTIO" }, "geometry": { "type": "Point", "coordinates": [ -35.172295125653697, -8.008702036370632 ] } },
{ "type": "Feature", "properties": { "CLASSE": "PLANTIO" }, "geometry": { "type": "Point", "coordinates": [ -35.172271117321877, -8.008704546583839 ] } },
{ "type": "Feature", "properties": { "CLASSE": "PLANTIO" }, "geometry": { "type": "Point", "coordinates": [ -35.172245152037448, -8.008707034219647 ] } },
{ "type": "Feature", "properties": { "CLASSE": "PLANTIO" }, "geometry": { "type": "Point", "coordinates": [ -35.172364425073596, -8.008716306973806 ] } },
{ "type": "Feature", "properties": { "CLASSE": "PLANTIO" }, "geometry": { "type": "Point", "coordinates": [ -35.172342314248404, -8.008723484338958 ] } },
{ "type": "Feature", "properties": { "CLASSE": "PLANTIO" }, "geometry": { "type": "Point", "coordinates": [ -35.172319266556379, -8.008727399215754 ] } },
{ "type": "Feature", "properties": { "CLASSE": "PLANTIO" }, "geometry": { "type": "Point", "coordinates": [ -35.17229670215719, -8.008731784189894 ] } },
{ "type": "Feature", "properties": { "CLASSE": "PLANTIO" }, "geometry": { "type": "Point", "coordinates": [ -35.172273200892867, -8.008732906675494 ] } },
{ "type": "Feature", "properties": { "CLASSE": "PLANTIO" }, "geometry": { "type": "Point", "coordinates": [ -35.172250165088066, -8.008735892629371 ] } },
{ "type": "Feature", "properties": { "CLASSE": "PLANTIO" }, "geometry": { "type": "Point", "coordinates": [ -35.172327244772028, -8.008753969199855 ] } },
{ "type": "Feature", "properties": { "CLASSE": "PLANTIO" }, "geometry": { "type": "Point", "coordinates": [ -35.172303698920523, -8.008758575116339 ] } },
{ "type": "Feature", "properties": { "CLASSE": "PLANTIO" }, "geometry": { "type": "Point", "coordinates": [ -35.172280683918231, -8.008759935474423 ] } },
{ "type": "Feature", "properties": { "CLASSE": "PLANTIO" }, "geometry": { "type": "Point", "coordinates": [ -35.17225740646284, -8.008762686378645 ] } },
{ "type": "Feature", "properties": { "CLASSE": "PLANTIO" }, "geometry": { "type": "Point", "coordinates": [ -35.172366617461968, -8.008774397955975 ] } },
{ "type": "Feature", "properties": { "CLASSE": "PLANTIO" }, "geometry": { "type": "Point", "coordinates": [ -35.17234031838111, -8.008783849637396 ] } },
{ "type": "Feature", "properties": { "CLASSE": "PLANTIO" }, "geometry": { "type": "Point", "coordinates": [ -35.172321435150593, -8.008787348024754 ] } },
{ "type": "Feature", "properties": { "CLASSE": "PLANTIO" }, "geometry": { "type": "Point", "coordinates": [ -35.172297910099985, -8.008790328340648 ] } },
{ "type": "Feature", "properties": { "CLASSE": "PLANTIO" }, "geometry": { "type": "Point", "coordinates": [ -35.172274650474087, -8.008791685875838 ] } },
{ "type": "Feature", "properties": { "CLASSE": "PLANTIO" }, "geometry": { "type": "Point", "coordinates": [ -35.172251378958784, -8.0087939723219 ] } },
{ "type": "Feature", "properties": { "CLASSE": "PLANTIO" }, "geometry": { "type": "Point", "coordinates": [ -35.17275463291805, -8.008813248097344 ] } },
{ "type": "Feature", "properties": { "CLASSE": "PLANTIO" }, "geometry": { "type": "Point", "coordinates": [ -35.172785843150407, -8.008821504966633 ] } },
{ "type": "Feature", "properties": { "CLASSE": "PLANTIO" }, "geometry": { "type": "Point", "coordinates": [ -35.1727728971061, -8.008839007640738 ] } },
{ "type": "Feature", "properties": { "CLASSE": "PLANTIO" }, "geometry": { "type": "Point", "coordinates": [ -35.172794681060957, -8.00885737536392 ] } },
{ "type": "Feature", "properties": { "CLASSE": "PLANTIO" }, "geometry": { "type": "Point", "coordinates": [ -35.172758966638376, -8.008856963486313 ] } },
{ "type": "Feature", "properties": { "CLASSE": "PLANTIO" }, "geometry": { "type": "Point", "coordinates": [ -35.172782713491742, -8.008874889322694 ] } },
{ "type": "Feature", "properties": { "CLASSE": "PLANTIO" }, "geometry": { "type": "Point", "coordinates": [ -35.172745021309254, -8.008876080473229 ] } },
{ "type": "Feature", "properties": { "CLASSE": "PLANTIO" }, "geometry": { "type": "Point", "coordinates": [ -35.172768523544072, -8.008894003490425 ] } },
{ "type": "Feature", "properties": { "CLASSE": "PLANTIO" }, "geometry": { "type": "Point", "coordinates": [ -35.172755085281068, -8.008911732748778 ] } },
{ "type": "Feature", "properties": { "CLASSE": "PLANTIO" }, "geometry": { "type": "Point", "coordinates": [ -35.172607879198381, -8.008810162005346 ] } },
{ "type": "Feature", "properties": { "CLASSE": "PLANTIO" }, "geometry": { "type": "Point", "coordinates": [ -35.172678747457113, -8.00881655365329 ] } },
{ "type": "Feature", "properties": { "CLASSE": "PLANTIO" }, "geometry": { "type": "Point", "coordinates": [ -35.172717874652044, -8.00881793395612 ] } },
{ "type": "Feature", "properties": { "CLASSE": "PLANTIO" }, "geometry": { "type": "Point", "coordinates": [ -35.172634591176141, -8.00882579942926 ] } },
{ "type": "Feature", "properties": { "CLASSE": "PLANTIO" }, "geometry": { "type": "Point", "coordinates": [ -35.172589575288619, -8.008825744767847 ] } },
{ "type": "Feature", "properties": { "CLASSE": "PLANTIO" }, "geometry": { "type": "Point", "coordinates": [ -35.172741191689525, -8.008831209583839 ] } },
{ "type": "Feature", "properties": { "CLASSE": "PLANTIO" }, "geometry": { "type": "Point", "coordinates": [ -35.172705429726683, -8.008834513352923 ] } },
{ "type": "Feature", "properties": { "CLASSE": "PLANTIO" }, "geometry": { "type": "Point", "coordinates": [ -35.172664822925498, -8.008834045033851 ] } },
{ "type": "Feature", "properties": { "CLASSE": "PLANTIO" }, "geometry": { "type": "Point", "coordinates": [ -35.172573252104726, -8.008839492270795 ] } },
{ "type": "Feature", "properties": { "CLASSE": "PLANTIO" }, "geometry": { "type": "Point", "coordinates": [ -35.172615803971809, -8.00884091209485 ] } },
{ "type": "Feature", "properties": { "CLASSE": "PLANTIO" }, "geometry": { "type": "Point", "coordinates": [ -35.172726771980699, -8.008849159784454 ] } },
{ "type": "Feature", "properties": { "CLASSE": "PLANTIO" }, "geometry": { "type": "Point", "coordinates": [ -35.172647962959196, -8.008851502558038 ] } },
{ "type": "Feature", "properties": { "CLASSE": "PLANTIO" }, "geometry": { "type": "Point", "coordinates": [ -35.172597989297593, -8.008856500500478 ] } },
{ "type": "Feature", "properties": { "CLASSE": "PLANTIO" }, "geometry": { "type": "Point", "coordinates": [ -35.172629664991419, -8.008866620867366 ] } },
{ "type": "Feature", "properties": { "CLASSE": "PLANTIO" }, "geometry": { "type": "Point", "coordinates": [ -35.172713312915832, -8.008868514639499 ] } },
{ "type": "Feature", "properties": { "CLASSE": "PLANTIO" }, "geometry": { "type": "Point", "coordinates": [ -35.172578969354696, -8.008870681426163 ] } },
{ "type": "Feature", "properties": { "CLASSE": "PLANTIO" }, "geometry": { "type": "Point", "coordinates": [ -35.1726147976348, -8.008881314215685 ] } },
{ "type": "Feature", "properties": { "CLASSE": "PLANTIO" }, "geometry": { "type": "Point", "coordinates": [ -35.172698905087358, -8.008885535923088 ] } },
{ "type": "Feature", "properties": { "CLASSE": "PLANTIO" }, "geometry": { "type": "Point", "coordinates": [ -35.172656830557607, -8.008885050673918 ] } },
{ "type": "Feature", "properties": { "CLASSE": "PLANTIO" }, "geometry": { "type": "Point", "coordinates": [ -35.172559710733083, -8.008884395071139 ] } },
{ "type": "Feature", "properties": { "CLASSE": "PLANTIO" }, "geometry": { "type": "Point", "coordinates": [ -35.17273011532928, -8.008893792802901 ] } },
{ "type": "Feature", "properties": { "CLASSE": "PLANTIO" }, "geometry": { "type": "Point", "coordinates": [ -35.172592818482798, -8.008897319115192 ] } },
{ "type": "Feature", "properties": { "CLASSE": "PLANTIO" }, "geometry": { "type": "Point", "coordinates": [ -35.172682080779396, -8.008900206707771 ] } },
{ "type": "Feature", "properties": { "CLASSE": "PLANTIO" }, "geometry": { "type": "Point", "coordinates": [ -35.172639493233184, -8.008901573640063 ] } },
{ "type": "Feature", "properties": { "CLASSE": "PLANTIO" }, "geometry": { "type": "Point", "coordinates": [ -35.172713774318282, -8.008908933690059 ] } },
{ "type": "Feature", "properties": { "CLASSE": "PLANTIO" }, "geometry": { "type": "Point", "coordinates": [ -35.17257259326891, -8.008910092561877 ] } },
{ "type": "Feature", "properties": { "CLASSE": "PLANTIO" }, "geometry": { "type": "Point", "coordinates": [ -35.172664277990854, -8.008914866205647 ] } },
{ "type": "Feature", "properties": { "CLASSE": "PLANTIO" }, "geometry": { "type": "Point", "coordinates": [ -35.172623665227235, -8.008914862332592 ] } },
{ "type": "Feature", "properties": { "CLASSE": "PLANTIO" }, "geometry": { "type": "Point", "coordinates": [ -35.172554372557961, -8.008919172920891 ] } },
{ "type": "Feature", "properties": { "CLASSE": "PLANTIO" }, "geometry": { "type": "Point", "coordinates": [ -35.172738505594076, -8.008926406359972 ] } },
{ "type": "Feature", "properties": { "CLASSE": "PLANTIO" }, "geometry": { "type": "Point", "coordinates": [ -35.172501613406489, -8.008816833299857 ] } },
{ "type": "Feature", "properties": { "CLASSE": "PLANTIO" }, "geometry": { "type": "Point", "coordinates": [ -35.17255149195487, -8.008819266695514 ] } },
{ "type": "Feature", "properties": { "CLASSE": "PLANTIO" }, "geometry": { "type": "Point", "coordinates": [ -35.172479484739462, -8.008825404051905 ] } },
{ "type": "Feature", "properties": { "CLASSE": "PLANTIO" }, "geometry": { "type": "Point", "coordinates": [ -35.172394321581358, -8.00882720890111 ] } },
{ "type": "Feature", "properties": { "CLASSE": "PLANTIO" }, "geometry": { "type": "Point", "coordinates": [ -35.172531260804597, -8.008832504595365 ] } },
{ "type": "Feature", "properties": { "CLASSE": "PLANTIO" }, "geometry": { "type": "Point", "coordinates": [ -35.172459808206909, -8.00883353855906 ] } },
{ "type": "Feature", "properties": { "CLASSE": "PLANTIO" }, "geometry": { "type": "Point", "coordinates": [ -35.17237267620277, -8.008836249739673 ] } },
{ "type": "Feature", "properties": { "CLASSE": "PLANTIO" }, "geometry": { "type": "Point", "coordinates": [ -35.1725120497359, -8.008842502579228 ] } },
{ "type": "Feature", "properties": { "CLASSE": "PLANTIO" }, "geometry": { "type": "Point", "coordinates": [ -35.172438652068756, -8.008842585048729 ] } },
{ "type": "Feature", "properties": { "CLASSE": "PLANTIO" }, "geometry": { "type": "Point", "coordinates": [ -35.172491394725355, -8.008850625804012 ] } },
{ "type": "Feature", "properties": { "CLASSE": "PLANTIO" }, "geometry": { "type": "Point", "coordinates": [ -35.172553015009449, -8.008853194629992 ] } },
{ "type": "Feature", "properties": { "CLASSE": "PLANTIO" }, "geometry": { "type": "Point", "coordinates": [ -35.172414301017447, -8.008852755997864 ] } },
{ "type": "Feature", "properties": { "CLASSE": "PLANTIO" }, "geometry": { "type": "Point", "coordinates": [ -35.172467774561149, -8.008861037453372 ] } },
{ "type": "Feature", "properties": { "CLASSE": "PLANTIO" }, "geometry": { "type": "Point", "coordinates": [ -35.17239240804475, -8.008862026245477 ] } },
{ "type": "Feature", "properties": { "CLASSE": "PLANTIO" }, "geometry": { "type": "Point", "coordinates": [ -35.172530844732051, -8.008865016587222 ] } },
{ "type": "Feature", "properties": { "CLASSE": "PLANTIO" }, "geometry": { "type": "Point", "coordinates": [ -35.17237227198747, -8.008867832814232 ] } },
{ "type": "Feature", "properties": { "CLASSE": "PLANTIO" }, "geometry": { "type": "Point", "coordinates": [ -35.172447113602374, -8.00886962512968 ] } },
{ "type": "Feature", "properties": { "CLASSE": "PLANTIO" }, "geometry": { "type": "Point", "coordinates": [ -35.172511168196522, -8.008873151099678 ] } },
{ "type": "Feature", "properties": { "CLASSE": "PLANTIO" }, "geometry": { "type": "Point", "coordinates": [ -35.172426929991857, -8.008879147360545 ] } },
{ "type": "Feature", "properties": { "CLASSE": "PLANTIO" }, "geometry": { "type": "Point", "coordinates": [ -35.172487070679317, -8.008882628194446 ] } },
{ "type": "Feature", "properties": { "CLASSE": "PLANTIO" }, "geometry": { "type": "Point", "coordinates": [ -35.172403315764413, -8.008889094543761 ] } },
{ "type": "Feature", "properties": { "CLASSE": "PLANTIO" }, "geometry": { "type": "Point", "coordinates": [ -35.172539294394298, -8.008892985579429 ] } },
{ "type": "Feature", "properties": { "CLASSE": "PLANTIO" }, "geometry": { "type": "Point", "coordinates": [ -35.172466391886211, -8.008892609243791 ] } },
{ "type": "Feature", "properties": { "CLASSE": "PLANTIO" }, "geometry": { "type": "Point", "coordinates": [ -35.172381443591348, -8.008896739190053 ] } },
{ "type": "Feature", "properties": { "CLASSE": "PLANTIO" }, "geometry": { "type": "Point", "coordinates": [ -35.172516664591456, -8.008902479606373 ] } },
{ "type": "Feature", "properties": { "CLASSE": "PLANTIO" }, "geometry": { "type": "Point", "coordinates": [ -35.172446697512321, -8.008902137119641 ] } },
{ "type": "Feature", "properties": { "CLASSE": "PLANTIO" }, "geometry": { "type": "Point", "coordinates": [ -35.172494535913003, -8.00891105035916 ] } },
{ "type": "Feature", "properties": { "CLASSE": "PLANTIO" }, "geometry": { "type": "Point", "coordinates": [ -35.172425058069869, -8.008910713506705 ] } },
{ "type": "Feature", "properties": { "CLASSE": "PLANTIO" }, "geometry": { "type": "Point", "coordinates": [ -35.172400489137267, -8.00891879157491 ] } },
{ "type": "Feature", "properties": { "CLASSE": "PLANTIO" }, "geometry": { "type": "Point", "coordinates": [ -35.172471422810872, -8.008920074280052 ] } },
{ "type": "Feature", "properties": { "CLASSE": "PLANTIO" }, "geometry": { "type": "Point", "coordinates": [ -35.172378402062392, -8.008924111113963 ] } },
{ "type": "Feature", "properties": { "CLASSE": "PLANTIO" }, "geometry": { "type": "Point", "coordinates": [ -35.172355844130877, -8.008813293833789 ] } },
{ "type": "Feature", "properties": { "CLASSE": "PLANTIO" }, "geometry": { "type": "Point", "coordinates": [ -35.172332336909989, -8.008814880782918 ] } },
{ "type": "Feature", "properties": { "CLASSE": "PLANTIO" }, "geometry": { "type": "Point", "coordinates": [ -35.172308334506056, -8.008816926542526 ] } },
{ "type": "Feature", "properties": { "CLASSE": "PLANTIO" }, "geometry": { "type": "Point", "coordinates": [ -35.172285316523222, -8.008818519128894 ] } },
{ "type": "Feature", "properties": { "CLASSE": "PLANTIO" }, "geometry": { "type": "Point", "coordinates": [ -35.172262274761685, -8.008821969540122 ] } },
{ "type": "Feature", "properties": { "CLASSE": "PLANTIO" }, "geometry": { "type": "Point", "coordinates": [ -35.172351096210406, -8.008840181548731 ] } },
{ "type": "Feature", "properties": { "CLASSE": "PLANTIO" }, "geometry": { "type": "Point", "coordinates": [ -35.172328072279676, -8.0088422385972 ] } },
{ "type": "Feature", "properties": { "CLASSE": "PLANTIO" }, "geometry": { "type": "Point", "coordinates": [ -35.172304063927179, -8.008844748812805 ] } },
{ "type": "Feature", "properties": { "CLASSE": "PLANTIO" }, "geometry": { "type": "Point", "coordinates": [ -35.17228004368507, -8.008848187939112 ] } },
{ "type": "Feature", "properties": { "CLASSE": "PLANTIO" }, "geometry": { "type": "Point", "coordinates": [ -35.172256524570109, -8.008850703791794 ] } },
{ "type": "Feature", "properties": { "CLASSE": "PLANTIO" }, "geometry": { "type": "Point", "coordinates": [ -35.172347267320859, -8.008871725119672 ] } },
{ "type": "Feature", "properties": { "CLASSE": "PLANTIO" }, "geometry": { "type": "Point", "coordinates": [ -35.172325227807292, -8.008873328997005 ] } },
{ "type": "Feature", "properties": { "CLASSE": "PLANTIO" }, "geometry": { "type": "Point", "coordinates": [ -35.172301213505648, -8.008876303668774 ] } },
{ "type": "Feature", "properties": { "CLASSE": "PLANTIO" }, "geometry": { "type": "Point", "coordinates": [ -35.172279144268522, -8.008880229825195 ] } },
{ "type": "Feature", "properties": { "CLASSE": "PLANTIO" }, "geometry": { "type": "Point", "coordinates": [ -35.172255613259544, -8.008883674591214 ] } },
{ "type": "Feature", "properties": { "CLASSE": "PLANTIO" }, "geometry": { "type": "Point", "coordinates": [ -35.172360120099114, -8.008899744907108 ] } },
{ "type": "Feature", "properties": { "CLASSE": "PLANTIO" }, "geometry": { "type": "Point", "coordinates": [ -35.172335145149773, -8.008901314925552 ] } },
{ "type": "Feature", "properties": { "CLASSE": "PLANTIO" }, "geometry": { "type": "Point", "coordinates": [ -35.172312610449062, -8.00890337761458 ] } },
{ "type": "Feature", "properties": { "CLASSE": "PLANTIO" }, "geometry": { "type": "Point", "coordinates": [ -35.172289574620223, -8.008906363571192 ] } },
{ "type": "Feature", "properties": { "CLASSE": "PLANTIO" }, "geometry": { "type": "Point", "coordinates": [ -35.17226556625819, -8.008908873780772 ] } },
{ "type": "Feature", "properties": { "CLASSE": "PLANTIO" }, "geometry": { "type": "Point", "coordinates": [ -35.172689231755335, -8.00885135731032 ] } },
{ "type": "Feature", "properties": { "CLASSE": "PLANTIO" }, "geometry": { "type": "Point", "coordinates": [ -35.172458578124349, -8.008706608531813 ] } }
]
}
