{
"type": "FeatureCollection",
"name": "amostra2",
"crs": { "type": "name", "properties": { "name": "urn:ogc:def:crs:OGC:1.3:CRS84" } },
"features": [
{ "type": "Feature", "properties": { "CLASSE": "PLANTIO" }, "geometry": { "type": "Point", "coordinates": [ -47.135048866347034, -25.578602721490256 ] } },
{ "type": "Feature", "properties": { "CLASSE": "PLANTIO" }, "geometry": { "type": "Point", "coordinates": [ -47.135055584578822, -25.578608466146171 ] } },
{ "type": "Feature", "properties": { "CLASSE": "PLANTIO" }, "geometry": { "type": "Point", "coordinates": [ -47.134936176717517, -25.578513044013121 ] } },
{ "type": "Feature", "properties": { "CLASSE": "PLANTIO" }, "geometry": { "type": "Point", "coordinates": [ -47.134944710555217, -25.578519313570034 ] } },
{ "type": "Feature", "properties": { "CLASSE": "PLANTIO" }, "geometry": { "type": "Point", "coordinates": [ -47.134928925963635, -25.578520262098792 ] } },
{ "type": "Feature", "properties": { "CLASSE": "PLANTIO" }, "geometry": { "type": "Point", "coordinates": [ -47.134952318385196, -25.57852544637937 ] } },
{ "type": "Feature", "properties": { "CLASSE": "PLANTIO" }, "geometry": { "type": "Point", "coordinates": [ -47.134936267119613, -25.578526517701864 ] } },
{ "type": "Feature", "properties": { "CLASSE": "PLANTIO" }, "geometry": { "type": "Point", "coordinates": [ -47.134960325409267, -25.578531457946166 ] } },
{ "type": "Feature", "properties": { "CLASSE": "PLANTIO" }, "geometry": { "type": "Point", "coordinates": [ -47.134924535159328, -25.578531794669082 ] } },
{ "type": "Feature", "properties": { "CLASSE": "PLANTIO" }, "geometry": { "type": "Point", "coordinates": [ -47.134943348132865, -25.578532392523314 ] } },
{ "type": "Feature", "properties": { "CLASSE": "PLANTIO" }, "geometry": { "type": "Point", "coordinates": [ -47.134968986875514, -25.578538106731322 ] } },
{ "type": "Feature", "properties": { "CLASSE": "PLANTIO" }, "geometry": { "type": "Point", "coordinates": [ -47.134952683623283, -25.57853816780927 ] } },
{ "type": "Feature", "properties": { "CLASSE": "PLANTIO" }, "geometry": { "type": "Point", "coordinates": [ -47.134932532388504, -25.578538561598634 ] } },
{ "type": "Feature", "properties": { "CLASSE": "PLANTIO" }, "geometry": { "type": "Point", "coordinates": [ -47.134912893280969, -25.578540346411682 ] } },
{ "type": "Feature", "properties": { "CLASSE": "PLANTIO" }, "geometry": { "type": "Point", "coordinates": [ -47.13497541181998, -25.578543470224471 ] } },
{ "type": "Feature", "properties": { "CLASSE": "PLANTIO" }, "geometry": { "type": "Point", "coordinates": [ -47.134960831329451, -25.578543551459894 ] } },
{ "type": "Feature", "properties": { "CLASSE": "PLANTIO" }, "geometry": { "type": "Point", "coordinates": [ -47.134940267843049, -25.578545073639795 ] } },
{ "type": "Feature", "properties": { "CLASSE": "PLANTIO" }, "geometry": { "type": "Point", "coordinates": [ -47.134920900302774, -25.578546357982383 ] } },
{ "type": "Feature", "properties": { "CLASSE": "PLANTIO" }, "geometry": { "type": "Point", "coordinates": [ -47.134906944873428, -25.578549342507049 ] } },
{ "type": "Feature", "properties": { "CLASSE": "PLANTIO" }, "geometry": { "type": "Point", "coordinates": [ -47.134969623685294, -25.578550327688937 ] } },
{ "type": "Feature", "properties": { "CLASSE": "PLANTIO" }, "geometry": { "type": "Point", "coordinates": [ -47.134948413916746, -25.578550583185049 ] } },
{ "type": "Feature", "properties": { "CLASSE": "PLANTIO" }, "geometry": { "type": "Point", "coordinates": [ -47.134929316311819, -25.578551492950588 ] } },
{ "type": "Feature", "properties": { "CLASSE": "PLANTIO" }, "geometry": { "type": "Point", "coordinates": [ -47.134953521818431, -25.578555301708199 ] } },
{ "type": "Feature", "properties": { "CLASSE": "PLANTIO" }, "geometry": { "type": "Point", "coordinates": [ -47.13491495189561, -25.5785553540784 ] } },
{ "type": "Feature", "properties": { "CLASSE": "PLANTIO" }, "geometry": { "type": "Point", "coordinates": [ -47.134977218464279, -25.578557467643115 ] } },
{ "type": "Feature", "properties": { "CLASSE": "PLANTIO" }, "geometry": { "type": "Point", "coordinates": [ -47.134937855049586, -25.578557384828574 ] } },
{ "type": "Feature", "properties": { "CLASSE": "PLANTIO" }, "geometry": { "type": "Point", "coordinates": [ -47.134961659733953, -25.578561440718996 ] } },
{ "type": "Feature", "properties": { "CLASSE": "PLANTIO" }, "geometry": { "type": "Point", "coordinates": [ -47.134922559726242, -25.578561486890742 ] } },
{ "type": "Feature", "properties": { "CLASSE": "PLANTIO" }, "geometry": { "type": "Point", "coordinates": [ -47.134899489775236, -25.578562098345383 ] } },
{ "type": "Feature", "properties": { "CLASSE": "PLANTIO" }, "geometry": { "type": "Point", "coordinates": [ -47.134946387260342, -25.578563780279111 ] } },
{ "type": "Feature", "properties": { "CLASSE": "PLANTIO" }, "geometry": { "type": "Point", "coordinates": [ -47.135004292094756, -25.578564961402478 ] } },
{ "type": "Feature", "properties": { "CLASSE": "PLANTIO" }, "geometry": { "type": "Point", "coordinates": [ -47.13498718392146, -25.578565768544763 ] } },
{ "type": "Feature", "properties": { "CLASSE": "PLANTIO" }, "geometry": { "type": "Point", "coordinates": [ -47.134969948124137, -25.578566196452705 ] } },
{ "type": "Feature", "properties": { "CLASSE": "PLANTIO" }, "geometry": { "type": "Point", "coordinates": [ -47.134930165926093, -25.578567745595791 ] } },
{ "type": "Feature", "properties": { "CLASSE": "PLANTIO" }, "geometry": { "type": "Point", "coordinates": [ -47.134907498430231, -25.578567984024232 ] } },
{ "type": "Feature", "properties": { "CLASSE": "PLANTIO" }, "geometry": { "type": "Point", "coordinates": [ -47.134953602430393, -25.578569530757186 ] } },
{ "type": "Feature", "properties": { "CLASSE": "PLANTIO" }, "geometry": { "type": "Point", "coordinates": [ -47.135010980453096, -25.578570453887309 ] } },
{ "type": "Feature", "properties": { "CLASSE": "PLANTIO" }, "geometry": { "type": "Point", "coordinates": [ -47.134889976374275, -25.578570045426403 ] } },
{ "type": "Feature", "properties": { "CLASSE": "PLANTIO" }, "geometry": { "type": "Point", "coordinates": [ -47.13499545436175, -25.57857190910282 ] } },
{ "type": "Feature", "properties": { "CLASSE": "PLANTIO" }, "geometry": { "type": "Point", "coordinates": [ -47.134978216930691, -25.578572462905825 ] } },
{ "type": "Feature", "properties": { "CLASSE": "PLANTIO" }, "geometry": { "type": "Point", "coordinates": [ -47.134938302208482, -25.578574010502322 ] } },
{ "type": "Feature", "properties": { "CLASSE": "PLANTIO" }, "geometry": { "type": "Point", "coordinates": [ -47.134915106261388, -25.578574116837366 ] } },
{ "type": "Feature", "properties": { "CLASSE": "PLANTIO" }, "geometry": { "type": "Point", "coordinates": [ -47.134961738715347, -25.578575795661465 ] } },
{ "type": "Feature", "properties": { "CLASSE": "PLANTIO" }, "geometry": { "type": "Point", "coordinates": [ -47.135018714287028, -25.57857709181496 ] } },
{ "type": "Feature", "properties": { "CLASSE": "PLANTIO" }, "geometry": { "type": "Point", "coordinates": [ -47.135002941105839, -25.578577159104178 ] } },
{ "type": "Feature", "properties": { "CLASSE": "PLANTIO" }, "geometry": { "type": "Point", "coordinates": [ -47.134897976868132, -25.578576560572909 ] } },
{ "type": "Feature", "properties": { "CLASSE": "PLANTIO" }, "geometry": { "type": "Point", "coordinates": [ -47.134986093074005, -25.578578347026809 ] } },
{ "type": "Feature", "properties": { "CLASSE": "PLANTIO" }, "geometry": { "type": "Point", "coordinates": [ -47.134881505178789, -25.578579389737644 ] } },
{ "type": "Feature", "properties": { "CLASSE": "PLANTIO" }, "geometry": { "type": "Point", "coordinates": [ -47.134946836053288, -25.578580280059647 ] } },
{ "type": "Feature", "properties": { "CLASSE": "PLANTIO" }, "geometry": { "type": "Point", "coordinates": [ -47.134922709197397, -25.578580627329885 ] } },
{ "type": "Feature", "properties": { "CLASSE": "PLANTIO" }, "geometry": { "type": "Point", "coordinates": [ -47.134969879898058, -25.578581682884966 ] } },
{ "type": "Feature", "properties": { "CLASSE": "PLANTIO" }, "geometry": { "type": "Point", "coordinates": [ -47.134905329451826, -25.578581934925808 ] } },
{ "type": "Feature", "properties": { "CLASSE": "PLANTIO" }, "geometry": { "type": "Point", "coordinates": [ -47.135010944876278, -25.578583422453363 ] } },
{ "type": "Feature", "properties": { "CLASSE": "PLANTIO" }, "geometry": { "type": "Point", "coordinates": [ -47.134993830170174, -25.578584733170096 ] } },
{ "type": "Feature", "properties": { "CLASSE": "PLANTIO" }, "geometry": { "type": "Point", "coordinates": [ -47.134890045547337, -25.578585155727481 ] } },
{ "type": "Feature", "properties": { "CLASSE": "PLANTIO" }, "geometry": { "type": "Point", "coordinates": [ -47.134955111387484, -25.578586042941801 ] } },
{ "type": "Feature", "properties": { "CLASSE": "PLANTIO" }, "geometry": { "type": "Point", "coordinates": [ -47.134931244673524, -25.578586770995521 ] } },
{ "type": "Feature", "properties": { "CLASSE": "PLANTIO" }, "geometry": { "type": "Point", "coordinates": [ -47.134978151970436, -25.578587697551548 ] } },
{ "type": "Feature", "properties": { "CLASSE": "PLANTIO" }, "geometry": { "type": "Point", "coordinates": [ -47.134912145426668, -25.578587806649171 ] } },
{ "type": "Feature", "properties": { "CLASSE": "PLANTIO" }, "geometry": { "type": "Point", "coordinates": [ -47.135034195015123, -25.578589360521462 ] } },
{ "type": "Feature", "properties": { "CLASSE": "PLANTIO" }, "geometry": { "type": "Point", "coordinates": [ -47.135018547823172, -25.578589932937394 ] } },
{ "type": "Feature", "properties": { "CLASSE": "PLANTIO" }, "geometry": { "type": "Point", "coordinates": [ -47.135001568899817, -25.578590993419379 ] } },
{ "type": "Feature", "properties": { "CLASSE": "PLANTIO" }, "geometry": { "type": "Point", "coordinates": [ -47.134963378562588, -25.57859243528992 ] } },
{ "type": "Feature", "properties": { "CLASSE": "PLANTIO" }, "geometry": { "type": "Point", "coordinates": [ -47.134897913522465, -25.578591669323526 ] } },
{ "type": "Feature", "properties": { "CLASSE": "PLANTIO" }, "geometry": { "type": "Point", "coordinates": [ -47.134876842792501, -25.578591422776011 ] } },
{ "type": "Feature", "properties": { "CLASSE": "PLANTIO" }, "geometry": { "type": "Point", "coordinates": [ -47.13493925333416, -25.578592656671582 ] } },
{ "type": "Feature", "properties": { "CLASSE": "PLANTIO" }, "geometry": { "type": "Point", "coordinates": [ -47.134985766338772, -25.578593326785096 ] } },
{ "type": "Feature", "properties": { "CLASSE": "PLANTIO" }, "geometry": { "type": "Point", "coordinates": [ -47.135041398772003, -25.578595992245788 ] } },
{ "type": "Feature", "properties": { "CLASSE": "PLANTIO" }, "geometry": { "type": "Point", "coordinates": [ -47.134921330446758, -25.578594965215437 ] } },
{ "type": "Feature", "properties": { "CLASSE": "PLANTIO" }, "geometry": { "type": "Point", "coordinates": [ -47.135026476360423, -25.578596887923496 ] } },
{ "type": "Feature", "properties": { "CLASSE": "PLANTIO" }, "geometry": { "type": "Point", "coordinates": [ -47.135009105586313, -25.57859750312911 ] } },
{ "type": "Feature", "properties": { "CLASSE": "PLANTIO" }, "geometry": { "type": "Point", "coordinates": [ -47.134971057558133, -25.578598191193436 ] } },
{ "type": "Feature", "properties": { "CLASSE": "PLANTIO" }, "geometry": { "type": "Point", "coordinates": [ -47.134905791292319, -25.578597427558897 ] } },
{ "type": "Feature", "properties": { "CLASSE": "PLANTIO" }, "geometry": { "type": "Point", "coordinates": [ -47.134885115672972, -25.578597374505208 ] } },
{ "type": "Feature", "properties": { "CLASSE": "PLANTIO" }, "geometry": { "type": "Point", "coordinates": [ -47.134864171749044, -25.578597570131333 ] } },
{ "type": "Feature", "properties": { "CLASSE": "PLANTIO" }, "geometry": { "type": "Point", "coordinates": [ -47.134947326624236, -25.578598669015527 ] } },
{ "type": "Feature", "properties": { "CLASSE": "PLANTIO" }, "geometry": { "type": "Point", "coordinates": [ -47.134993364387881, -25.578600214951521 ] } },
{ "type": "Feature", "properties": { "CLASSE": "PLANTIO" }, "geometry": { "type": "Point", "coordinates": [ -47.134929210667394, -25.578600534608633 ] } },
{ "type": "Feature", "properties": { "CLASSE": "PLANTIO" }, "geometry": { "type": "Point", "coordinates": [ -47.135034285434713, -25.578602834211686 ] } },
{ "type": "Feature", "properties": { "CLASSE": "PLANTIO" }, "geometry": { "type": "Point", "coordinates": [ -47.135016715878436, -25.578603447093336 ] } },
{ "type": "Feature", "properties": { "CLASSE": "PLANTIO" }, "geometry": { "type": "Point", "coordinates": [ -47.134978732474785, -25.578604261829671 ] } },
{ "type": "Feature", "properties": { "CLASSE": "PLANTIO" }, "geometry": { "type": "Point", "coordinates": [ -47.134914194248303, -25.578603569675867 ] } },
{ "type": "Feature", "properties": { "CLASSE": "PLANTIO" }, "geometry": { "type": "Point", "coordinates": [ -47.134892262948128, -25.578603250106831 ] } },
{ "type": "Feature", "properties": { "CLASSE": "PLANTIO" }, "geometry": { "type": "Point", "coordinates": [ -47.134872444628954, -25.578603521861851 ] } },
{ "type": "Feature", "properties": { "CLASSE": "PLANTIO" }, "geometry": { "type": "Point", "coordinates": [ -47.134955994625209, -25.578604814229344 ] } },
{ "type": "Feature", "properties": { "CLASSE": "PLANTIO" }, "geometry": { "type": "Point", "coordinates": [ -47.135001167747191, -25.578606601869559 ] } },
{ "type": "Feature", "properties": { "CLASSE": "PLANTIO" }, "geometry": { "type": "Point", "coordinates": [ -47.134937483553927, -25.578606486332752 ] } },
{ "type": "Feature", "properties": { "CLASSE": "PLANTIO" }, "geometry": { "type": "Point", "coordinates": [ -47.135063546660177, -25.578615390043243 ] } },
{ "type": "Feature", "properties": { "CLASSE": "PLANTIO" }, "geometry": { "type": "Point", "coordinates": [ -47.135048562063922, -25.578615970216283 ] } },
{ "type": "Feature", "properties": { "CLASSE": "PLANTIO" }, "geometry": { "type": "Point", "coordinates": [ -47.135070753686385, -25.578621769978586 ] } },
{ "type": "Feature", "properties": { "CLASSE": "PLANTIO" }, "geometry": { "type": "Point", "coordinates": [ -47.135055828821116, -25.578622854501511 ] } },
{ "type": "Feature", "properties": { "CLASSE": "PLANTIO" }, "geometry": { "type": "Point", "coordinates": [ -47.135077949290618, -25.57862903116694 ] } },
{ "type": "Feature", "properties": { "CLASSE": "PLANTIO" }, "geometry": { "type": "Point", "coordinates": [ -47.135063368780223, -25.578629112419996 ] } },
{ "type": "Feature", "properties": { "CLASSE": "PLANTIO" }, "geometry": { "type": "Point", "coordinates": [ -47.135046586179584, -25.578630364076531 ] } },
{ "type": "Feature", "properties": { "CLASSE": "PLANTIO" }, "geometry": { "type": "Point", "coordinates": [ -47.135085553880891, -25.578635415752018 ] } },
{ "type": "Feature", "properties": { "CLASSE": "PLANTIO" }, "geometry": { "type": "Point", "coordinates": [ -47.135070696904734, -25.578636375159334 ] } },
{ "type": "Feature", "properties": { "CLASSE": "PLANTIO" }, "geometry": { "type": "Point", "coordinates": [ -47.135054054982454, -25.578636998900826 ] } },
{ "type": "Feature", "properties": { "CLASSE": "PLANTIO" }, "geometry": { "type": "Point", "coordinates": [ -47.135091836531807, -25.578641533047033 ] } },
{ "type": "Feature", "properties": { "CLASSE": "PLANTIO" }, "geometry": { "type": "Point", "coordinates": [ -47.135078422592116, -25.578643642548997 ] } },
{ "type": "Feature", "properties": { "CLASSE": "PLANTIO" }, "geometry": { "type": "Point", "coordinates": [ -47.135061317662377, -25.578644197919171 ] } },
{ "type": "Feature", "properties": { "CLASSE": "PLANTIO" }, "geometry": { "type": "Point", "coordinates": [ -47.135045115896446, -25.578646652538417 ] } },
{ "type": "Feature", "properties": { "CLASSE": "PLANTIO" }, "geometry": { "type": "Point", "coordinates": [ -47.135100342658149, -25.578649942776735 ] } },
{ "type": "Feature", "properties": { "CLASSE": "PLANTIO" }, "geometry": { "type": "Point", "coordinates": [ -47.135085359685874, -25.578650397062852 ] } },
{ "type": "Feature", "properties": { "CLASSE": "PLANTIO" }, "geometry": { "type": "Point", "coordinates": [ -47.135068128761596, -25.578650447310636 ] } },
{ "type": "Feature", "properties": { "CLASSE": "PLANTIO" }, "geometry": { "type": "Point", "coordinates": [ -47.135052583068784, -25.578653413256347 ] } },
{ "type": "Feature", "properties": { "CLASSE": "PLANTIO" }, "geometry": { "type": "Point", "coordinates": [ -47.135107551323188, -25.578656196815885 ] } },
{ "type": "Feature", "properties": { "CLASSE": "PLANTIO" }, "geometry": { "type": "Point", "coordinates": [ -47.13509348783343, -25.578657291422033 ] } },
{ "type": "Feature", "properties": { "CLASSE": "PLANTIO" }, "geometry": { "type": "Point", "coordinates": [ -47.135075198375333, -25.57865720337568 ] } },
{ "type": "Feature", "properties": { "CLASSE": "PLANTIO" }, "geometry": { "type": "Point", "coordinates": [ -47.135060051874518, -25.578660048080316 ] } },
{ "type": "Feature", "properties": { "CLASSE": "PLANTIO" }, "geometry": { "type": "Point", "coordinates": [ -47.135114751830315, -25.578663080321348 ] } },
{ "type": "Feature", "properties": { "CLASSE": "PLANTIO" }, "geometry": { "type": "Point", "coordinates": [ -47.135100693234733, -25.57866379724857 ] } },
{ "type": "Feature", "properties": { "CLASSE": "PLANTIO" }, "geometry": { "type": "Point", "coordinates": [ -47.135083192370097, -25.57866422207897 ] } },
{ "type": "Feature", "properties": { "CLASSE": "PLANTIO" }, "geometry": { "type": "Point", "coordinates": [ -47.135046341066527, -25.578664609396128 ] } },
{ "type": "Feature", "properties": { "CLASSE": "PLANTIO" }, "geometry": { "type": "Point", "coordinates": [ -47.135067512522042, -25.578667312370513 ] } },
{ "type": "Feature", "properties": { "CLASSE": "PLANTIO" }, "geometry": { "type": "Point", "coordinates": [ -47.135123015766624, -25.578669724441312 ] } },
{ "type": "Feature", "properties": { "CLASSE": "PLANTIO" }, "geometry": { "type": "Point", "coordinates": [ -47.135108284775932, -25.578671188978902 ] } },
{ "type": "Feature", "properties": { "CLASSE": "PLANTIO" }, "geometry": { "type": "Point", "coordinates": [ -47.135090527027714, -25.578670981243448 ] } },
{ "type": "Feature", "properties": { "CLASSE": "PLANTIO" }, "geometry": { "type": "Point", "coordinates": [ -47.135053215162401, -25.57867111135084 ] } },
{ "type": "Feature", "properties": { "CLASSE": "PLANTIO" }, "geometry": { "type": "Point", "coordinates": [ -47.135075378892232, -25.57867395184422 ] } },
{ "type": "Feature", "properties": { "CLASSE": "PLANTIO" }, "geometry": { "type": "Point", "coordinates": [ -47.135129291896646, -25.578676345307343 ] } },
{ "type": "Feature", "properties": { "CLASSE": "PLANTIO" }, "geometry": { "type": "Point", "coordinates": [ -47.135115617805056, -25.578678074034666 ] } },
{ "type": "Feature", "properties": { "CLASSE": "PLANTIO" }, "geometry": { "type": "Point", "coordinates": [ -47.135061146975744, -25.578677814547753 ] } },
{ "type": "Feature", "properties": { "CLASSE": "PLANTIO" }, "geometry": { "type": "Point", "coordinates": [ -47.135097853527384, -25.578678369874204 ] } },
{ "type": "Feature", "properties": { "CLASSE": "PLANTIO" }, "geometry": { "type": "Point", "coordinates": [ -47.135082847702364, -25.578680586666373 ] } },
{ "type": "Feature", "properties": { "CLASSE": "PLANTIO" }, "geometry": { "type": "Point", "coordinates": [ -47.135136759080893, -25.578683106018175 ] } },
{ "type": "Feature", "properties": { "CLASSE": "PLANTIO" }, "geometry": { "type": "Point", "coordinates": [ -47.135045298700177, -25.578683672937956 ] } },
{ "type": "Feature", "properties": { "CLASSE": "PLANTIO" }, "geometry": { "type": "Point", "coordinates": [ -47.135104795521912, -25.578684746706664 ] } },
{ "type": "Feature", "properties": { "CLASSE": "PLANTIO" }, "geometry": { "type": "Point", "coordinates": [ -47.135068748305287, -25.578684450921507 ] } },
{ "type": "Feature", "properties": { "CLASSE": "PLANTIO" }, "geometry": { "type": "Point", "coordinates": [ -47.135122815051432, -25.57868520932638 ] } },
{ "type": "Feature", "properties": { "CLASSE": "PLANTIO" }, "geometry": { "type": "Point", "coordinates": [ -47.135089775008531, -25.578688096540382 ] } },
{ "type": "Feature", "properties": { "CLASSE": "PLANTIO" }, "geometry": { "type": "Point", "coordinates": [ -47.135144224634814, -25.578689992621808 ] } },
{ "type": "Feature", "properties": { "CLASSE": "PLANTIO" }, "geometry": { "type": "Point", "coordinates": [ -47.135053042340907, -25.578689555503367 ] } },
{ "type": "Feature", "properties": { "CLASSE": "PLANTIO" }, "geometry": { "type": "Point", "coordinates": [ -47.135130550540595, -25.578691721351543 ] } },
{ "type": "Feature", "properties": { "CLASSE": "PLANTIO" }, "geometry": { "type": "Point", "coordinates": [ -47.135112390329333, -25.578691886650077 ] } },
{ "type": "Feature", "properties": { "CLASSE": "PLANTIO" }, "geometry": { "type": "Point", "coordinates": [ -47.13507634147669, -25.578691716761469 ] } },
{ "type": "Feature", "properties": { "CLASSE": "PLANTIO" }, "geometry": { "type": "Point", "coordinates": [ -47.135097119460411, -25.578694100344286 ] } },
{ "type": "Feature", "properties": { "CLASSE": "PLANTIO" }, "geometry": { "type": "Point", "coordinates": [ -47.135151560933195, -25.578696625887904 ] } },
{ "type": "Feature", "properties": { "CLASSE": "PLANTIO" }, "geometry": { "type": "Point", "coordinates": [ -47.135059837123812, -25.578697063829466 ] } },
{ "type": "Feature", "properties": { "CLASSE": "PLANTIO" }, "geometry": { "type": "Point", "coordinates": [ -47.135137754317135, -25.578698353068621 ] } },
{ "type": "Feature", "properties": { "CLASSE": "PLANTIO" }, "geometry": { "type": "Point", "coordinates": [ -47.135120255074966, -25.57869865201323 ] } },
{ "type": "Feature", "properties": { "CLASSE": "PLANTIO" }, "geometry": { "type": "Point", "coordinates": [ -47.135083149317765, -25.578698217938854 ] } },
{ "type": "Feature", "properties": { "CLASSE": "PLANTIO" }, "geometry": { "type": "Point", "coordinates": [ -47.135043848814, -25.578698387732491 ] } },
{ "type": "Feature", "properties": { "CLASSE": "PLANTIO" }, "geometry": { "type": "Point", "coordinates": [ -47.135104586642925, -25.578700861058088 ] } },
{ "type": "Feature", "properties": { "CLASSE": "PLANTIO" }, "geometry": { "type": "Point", "coordinates": [ -47.135159293162971, -25.578703389697313 ] } },
{ "type": "Feature", "properties": { "CLASSE": "PLANTIO" }, "geometry": { "type": "Point", "coordinates": [ -47.135067431927368, -25.578704203776958 ] } },
{ "type": "Feature", "properties": { "CLASSE": "PLANTIO" }, "geometry": { "type": "Point", "coordinates": [ -47.135145352393209, -25.57870524122248 ] } },
{ "type": "Feature", "properties": { "CLASSE": "PLANTIO" }, "geometry": { "type": "Point", "coordinates": [ -47.135127594635314, -25.578705033494707 ] } },
{ "type": "Feature", "properties": { "CLASSE": "PLANTIO" }, "geometry": { "type": "Point", "coordinates": [ -47.135090214041774, -25.578705351683155 ] } },
{ "type": "Feature", "properties": { "CLASSE": "PLANTIO" }, "geometry": { "type": "Point", "coordinates": [ -47.135051248098961, -25.57870527356916 ] } },
{ "type": "Feature", "properties": { "CLASSE": "PLANTIO" }, "geometry": { "type": "Point", "coordinates": [ -47.135111788785736, -25.578707618670798 ] } },
{ "type": "Feature", "properties": { "CLASSE": "PLANTIO" }, "geometry": { "type": "Point", "coordinates": [ -47.135167025394253, -25.578710153506076 ] } },
{ "type": "Feature", "properties": { "CLASSE": "PLANTIO" }, "geometry": { "type": "Point", "coordinates": [ -47.135075295037481, -25.578711095037747 ] } },
{ "type": "Feature", "properties": { "CLASSE": "PLANTIO" }, "geometry": { "type": "Point", "coordinates": [ -47.135152685429603, -25.57871212627537 ] } },
{ "type": "Feature", "properties": { "CLASSE": "PLANTIO" }, "geometry": { "type": "Point", "coordinates": [ -47.135134926037935, -25.578712044442483 ] } },
{ "type": "Feature", "properties": { "CLASSE": "PLANTIO" }, "geometry": { "type": "Point", "coordinates": [ -47.135097550335935, -25.578711984954012 ] } },
{ "type": "Feature", "properties": { "CLASSE": "PLANTIO" }, "geometry": { "type": "Point", "coordinates": [ -47.135058718541543, -25.578711782500349 ] } },
{ "type": "Feature", "properties": { "CLASSE": "PLANTIO" }, "geometry": { "type": "Point", "coordinates": [ -47.135118593368155, -25.578714371632245 ] } },
{ "type": "Feature", "properties": { "CLASSE": "PLANTIO" }, "geometry": { "type": "Point", "coordinates": [ -47.135043176098534, -25.578714496656033 ] } },
{ "type": "Feature", "properties": { "CLASSE": "PLANTIO" }, "geometry": { "type": "Point", "coordinates": [ -47.135173969030362, -25.57871640443981 ] } },
{ "type": "Feature", "properties": { "CLASSE": "PLANTIO" }, "geometry": { "type": "Point", "coordinates": [ -47.135160159146913, -25.578718383410962 ] } },
{ "type": "Feature", "properties": { "CLASSE": "PLANTIO" }, "geometry": { "type": "Point", "coordinates": [ -47.135082235400745, -25.578717597765667 ] } },
{ "type": "Feature", "properties": { "CLASSE": "PLANTIO" }, "geometry": { "type": "Point", "coordinates": [ -47.135142260705635, -25.578718803602946 ] } },
{ "type": "Feature", "properties": { "CLASSE": "PLANTIO" }, "geometry": { "type": "Point", "coordinates": [ -47.135104889895246, -25.57871836643756 ] } },
{ "type": "Feature", "properties": { "CLASSE": "PLANTIO" }, "geometry": { "type": "Point", "coordinates": [ -47.135065794687634, -25.578718034993216 ] } },
{ "type": "Feature", "properties": { "CLASSE": "PLANTIO" }, "geometry": { "type": "Point", "coordinates": [ -47.135126062186771, -25.578721006450976 ] } },
{ "type": "Feature", "properties": { "CLASSE": "PLANTIO" }, "geometry": { "type": "Point", "coordinates": [ -47.135050515652551, -25.578720878144289 ] } },
{ "type": "Feature", "properties": { "CLASSE": "PLANTIO" }, "geometry": { "type": "Point", "coordinates": [ -47.135181439486757, -25.578722913360327 ] } },
{ "type": "Feature", "properties": { "CLASSE": "PLANTIO" }, "geometry": { "type": "Point", "coordinates": [ -47.135090235930171, -25.578724112895404 ] } },
{ "type": "Feature", "properties": { "CLASSE": "PLANTIO" }, "geometry": { "type": "Point", "coordinates": [ -47.135167755595646, -25.578725397456395 ] } },
{ "type": "Feature", "properties": { "CLASSE": "PLANTIO" }, "geometry": { "type": "Point", "coordinates": [ -47.135112487969693, -25.57872525459452 ] } },
{ "type": "Feature", "properties": { "CLASSE": "PLANTIO" }, "geometry": { "type": "Point", "coordinates": [ -47.135149587215793, -25.578726192229727 ] } },
{ "type": "Feature", "properties": { "CLASSE": "PLANTIO" }, "geometry": { "type": "Point", "coordinates": [ -47.135073782159949, -25.578725557271422 ] } },
{ "type": "Feature", "properties": { "CLASSE": "PLANTIO" }, "geometry": { "type": "Point", "coordinates": [ -47.135133005819796, -25.578727257388117 ] } },
{ "type": "Feature", "properties": { "CLASSE": "PLANTIO" }, "geometry": { "type": "Point", "coordinates": [ -47.135058378762515, -25.578727769406797 ] } },
{ "type": "Feature", "properties": { "CLASSE": "PLANTIO" }, "geometry": { "type": "Point", "coordinates": [ -47.135188903417671, -25.578729925853793 ] } },
{ "type": "Feature", "properties": { "CLASSE": "PLANTIO" }, "geometry": { "type": "Point", "coordinates": [ -47.13517508700464, -25.578732408400924 ] } },
{ "type": "Feature", "properties": { "CLASSE": "PLANTIO" }, "geometry": { "type": "Point", "coordinates": [ -47.135097429914161, -25.578731499976353 ] } },
{ "type": "Feature", "properties": { "CLASSE": "PLANTIO" }, "geometry": { "type": "Point", "coordinates": [ -47.1351200876775, -25.57873201685749 ] } },
{ "type": "Feature", "properties": { "CLASSE": "PLANTIO" }, "geometry": { "type": "Point", "coordinates": [ -47.135156525956276, -25.57873282084514 ] } },
{ "type": "Feature", "properties": { "CLASSE": "PLANTIO" }, "geometry": { "type": "Point", "coordinates": [ -47.135080720892432, -25.578732185892946 ] } },
{ "type": "Feature", "properties": { "CLASSE": "PLANTIO" }, "geometry": { "type": "Point", "coordinates": [ -47.13514007218383, -25.578734265235212 ] } },
{ "type": "Feature", "properties": { "CLASSE": "PLANTIO" }, "geometry": { "type": "Point", "coordinates": [ -47.135044320319281, -25.578733585778586 ] } },
{ "type": "Feature", "properties": { "CLASSE": "PLANTIO" }, "geometry": { "type": "Point", "coordinates": [ -47.135196508029289, -25.578736310429846 ] } },
{ "type": "Feature", "properties": { "CLASSE": "PLANTIO" }, "geometry": { "type": "Point", "coordinates": [ -47.135066236978219, -25.578735038348725 ] } },
{ "type": "Feature", "properties": { "CLASSE": "PLANTIO" }, "geometry": { "type": "Point", "coordinates": [ -47.135182694878566, -25.57873854119147 ] } },
{ "type": "Feature", "properties": { "CLASSE": "PLANTIO" }, "geometry": { "type": "Point", "coordinates": [ -47.135104506065922, -25.578737752466175 ] } },
{ "type": "Feature", "properties": { "CLASSE": "PLANTIO" }, "geometry": { "type": "Point", "coordinates": [ -47.135088726318941, -25.578738323342865 ] } },
{ "type": "Feature", "properties": { "CLASSE": "PLANTIO" }, "geometry": { "type": "Point", "coordinates": [ -47.135164393974406, -25.578739334417833 ] } },
{ "type": "Feature", "properties": { "CLASSE": "PLANTIO" }, "geometry": { "type": "Point", "coordinates": [ -47.135127420713673, -25.578738901912764 ] } },
{ "type": "Feature", "properties": { "CLASSE": "PLANTIO" }, "geometry": { "type": "Point", "coordinates": [ -47.135052129409331, -25.578739532066415 ] } },
{ "type": "Feature", "properties": { "CLASSE": "PLANTIO" }, "geometry": { "type": "Point", "coordinates": [ -47.135147277597142, -25.578740771058474 ] } },
{ "type": "Feature", "properties": { "CLASSE": "PLANTIO" }, "geometry": { "type": "Point", "coordinates": [ -47.13507343748816, -25.578741921858295 ] } },
{ "type": "Feature", "properties": { "CLASSE": "PLANTIO" }, "geometry": { "type": "Point", "coordinates": [ -47.135203041055085, -25.578743563858197 ] } },
{ "type": "Feature", "properties": { "CLASSE": "PLANTIO" }, "geometry": { "type": "Point", "coordinates": [ -47.135111973253458, -25.578744513179711 ] } },
{ "type": "Feature", "properties": { "CLASSE": "PLANTIO" }, "geometry": { "type": "Point", "coordinates": [ -47.135190289700063, -25.578745681128467 ] } },
{ "type": "Feature", "properties": { "CLASSE": "PLANTIO" }, "geometry": { "type": "Point", "coordinates": [ -47.135095794310985, -25.578745205300304 ] } },
{ "type": "Feature", "properties": { "CLASSE": "PLANTIO" }, "geometry": { "type": "Point", "coordinates": [ -47.13517199205743, -25.578746222569698 ] } },
{ "type": "Feature", "properties": { "CLASSE": "PLANTIO" }, "geometry": { "type": "Point", "coordinates": [ -47.135134752119463, -25.578745912860846 ] } },
{ "type": "Feature", "properties": { "CLASSE": "PLANTIO" }, "geometry": { "type": "Point", "coordinates": [ -47.13515474478956, -25.578747531768304 ] } },
{ "type": "Feature", "properties": { "CLASSE": "PLANTIO" }, "geometry": { "type": "Point", "coordinates": [ -47.135060252666797, -25.578746804109706 ] } },
{ "type": "Feature", "properties": { "CLASSE": "PLANTIO" }, "geometry": { "type": "Point", "coordinates": [ -47.135080775415958, -25.57874842923755 ] } },
{ "type": "Feature", "properties": { "CLASSE": "PLANTIO" }, "geometry": { "type": "Point", "coordinates": [ -47.135210907447487, -25.578750203320062 ] } },
{ "type": "Feature", "properties": { "CLASSE": "PLANTIO" }, "geometry": { "type": "Point", "coordinates": [ -47.135119442074291, -25.578751147999292 ] } },
{ "type": "Feature", "properties": { "CLASSE": "PLANTIO" }, "geometry": { "type": "Point", "coordinates": [ -47.135198152827911, -25.578752572378306 ] } },
{ "type": "Feature", "properties": { "CLASSE": "PLANTIO" }, "geometry": { "type": "Point", "coordinates": [ -47.135179593405446, -25.578752858934177 ] } },
{ "type": "Feature", "properties": { "CLASSE": "PLANTIO" }, "geometry": { "type": "Point", "coordinates": [ -47.135103127345758, -25.57875209035776 ] } },
{ "type": "Feature", "properties": { "CLASSE": "PLANTIO" }, "geometry": { "type": "Point", "coordinates": [ -47.135142085158549, -25.578752797914994 ] } },
{ "type": "Feature", "properties": { "CLASSE": "PLANTIO" }, "geometry": { "type": "Point", "coordinates": [ -47.13504759303045, -25.578752070240228 ] } },
{ "type": "Feature", "properties": { "CLASSE": "PLANTIO" }, "geometry": { "type": "Point", "coordinates": [ -47.135161950205621, -25.578754037590439 ] } },
{ "type": "Feature", "properties": { "CLASSE": "PLANTIO" }, "geometry": { "type": "Point", "coordinates": [ -47.135067983259823, -25.57875369382122 ] } },
{ "type": "Feature", "properties": { "CLASSE": "PLANTIO" }, "geometry": { "type": "Point", "coordinates": [ -47.135087845039969, -25.578755185302356 ] } },
{ "type": "Feature", "properties": { "CLASSE": "PLANTIO" }, "geometry": { "type": "Point", "coordinates": [ -47.135217846196539, -25.578756831930725 ] } },
{ "type": "Feature", "properties": { "CLASSE": "PLANTIO" }, "geometry": { "type": "Point", "coordinates": [ -47.135126644223362, -25.578757905611177 ] } },
{ "type": "Feature", "properties": { "CLASSE": "PLANTIO" }, "geometry": { "type": "Point", "coordinates": [ -47.135205489137931, -25.578759205640313 ] } },
{ "type": "Feature", "properties": { "CLASSE": "PLANTIO" }, "geometry": { "type": "Point", "coordinates": [ -47.135186664672148, -25.578759489097514 ] } },
{ "type": "Feature", "properties": { "CLASSE": "PLANTIO" }, "geometry": { "type": "Point", "coordinates": [ -47.13514968650405, -25.578759434282198 ] } },
{ "type": "Feature", "properties": { "CLASSE": "PLANTIO" }, "geometry": { "type": "Point", "coordinates": [ -47.13511019534063, -25.578758972314134 ] } },
{ "type": "Feature", "properties": { "CLASSE": "PLANTIO" }, "geometry": { "type": "Point", "coordinates": [ -47.135054995584888, -25.578758704290323 ] } },
{ "type": "Feature", "properties": { "CLASSE": "PLANTIO" }, "geometry": { "type": "Point", "coordinates": [ -47.135169551553346, -25.578760673955884 ] } },
{ "type": "Feature", "properties": { "CLASSE": "PLANTIO" }, "geometry": { "type": "Point", "coordinates": [ -47.135075054514886, -25.578760323993759 ] } },
{ "type": "Feature", "properties": { "CLASSE": "PLANTIO" }, "geometry": { "type": "Point", "coordinates": [ -47.135095178074813, -25.578762070360582 ] } },
{ "type": "Feature", "properties": { "CLASSE": "PLANTIO" }, "geometry": { "type": "Point", "coordinates": [ -47.135225573544517, -25.578763973414844 ] } },
{ "type": "Feature", "properties": { "CLASSE": "PLANTIO" }, "geometry": { "type": "Point", "coordinates": [ -47.135133982158187, -25.57876441298599 ] } },
{ "type": "Feature", "properties": { "CLASSE": "PLANTIO" }, "geometry": { "type": "Point", "coordinates": [ -47.135213484789546, -25.578766098438962 ] } },
{ "type": "Feature", "properties": { "CLASSE": "PLANTIO" }, "geometry": { "type": "Point", "coordinates": [ -47.135194400175465, -25.578766001117543 ] } },
{ "type": "Feature", "properties": { "CLASSE": "PLANTIO" }, "geometry": { "type": "Point", "coordinates": [ -47.135156887025339, -25.578766317784996 ] } },
{ "type": "Feature", "properties": { "CLASSE": "PLANTIO" }, "geometry": { "type": "Point", "coordinates": [ -47.135117657635234, -25.57876611070747 ] } },
{ "type": "Feature", "properties": { "CLASSE": "PLANTIO" }, "geometry": { "type": "Point", "coordinates": [ -47.135062394876833, -25.578765590126558 ] } },
{ "type": "Feature", "properties": { "CLASSE": "PLANTIO" }, "geometry": { "type": "Point", "coordinates": [ -47.13517702364534, -25.5787670569838 ] } },
{ "type": "Feature", "properties": { "CLASSE": "PLANTIO" }, "geometry": { "type": "Point", "coordinates": [ -47.135083051784193, -25.57876709091131 ] } },
{ "type": "Feature", "properties": { "CLASSE": "PLANTIO" }, "geometry": { "type": "Point", "coordinates": [ -47.135046260974562, -25.578767919625051 ] } },
{ "type": "Feature", "properties": { "CLASSE": "PLANTIO" }, "geometry": { "type": "Point", "coordinates": [ -47.135102511111114, -25.578768955418237 ] } },
{ "type": "Feature", "properties": { "CLASSE": "PLANTIO" }, "geometry": { "type": "Point", "coordinates": [ -47.135140652595396, -25.578771290289296 ] } },
{ "type": "Feature", "properties": { "CLASSE": "PLANTIO" }, "geometry": { "type": "Point", "coordinates": [ -47.135219893457375, -25.578772720849237 ] } },
{ "type": "Feature", "properties": { "CLASSE": "PLANTIO" }, "geometry": { "type": "Point", "coordinates": [ -47.135201999896104, -25.578772763373589 ] } },
{ "type": "Feature", "properties": { "CLASSE": "PLANTIO" }, "geometry": { "type": "Point", "coordinates": [ -47.135164488373746, -25.578772954151006 ] } },
{ "type": "Feature", "properties": { "CLASSE": "PLANTIO" }, "geometry": { "type": "Point", "coordinates": [ -47.135124599639639, -25.578772487539037 ] } },
{ "type": "Feature", "properties": { "CLASSE": "PLANTIO" }, "geometry": { "type": "Point", "coordinates": [ -47.135184888405661, -25.578773822341677 ] } },
{ "type": "Feature", "properties": { "CLASSE": "PLANTIO" }, "geometry": { "type": "Point", "coordinates": [ -47.135069858798637, -25.578772602630739 ] } },
{ "type": "Feature", "properties": { "CLASSE": "PLANTIO" }, "geometry": { "type": "Point", "coordinates": [ -47.135090250667034, -25.578774100313108 ] } },
{ "type": "Feature", "properties": { "CLASSE": "PLANTIO" }, "geometry": { "type": "Point", "coordinates": [ -47.135053991568171, -25.578774809338018 ] } },
{ "type": "Feature", "properties": { "CLASSE": "PLANTIO" }, "geometry": { "type": "Point", "coordinates": [ -47.13511024171099, -25.578775845126124 ] } },
{ "type": "Feature", "properties": { "CLASSE": "PLANTIO" }, "geometry": { "type": "Point", "coordinates": [ -47.135208940277934, -25.578779266091757 ] } },
{ "type": "Feature", "properties": { "CLASSE": "PLANTIO" }, "geometry": { "type": "Point", "coordinates": [ -47.135147979110286, -25.578778678916649 ] } },
{ "type": "Feature", "properties": { "CLASSE": "PLANTIO" }, "geometry": { "type": "Point", "coordinates": [ -47.135171963729945, -25.578779085392711 ] } },
{ "type": "Feature", "properties": { "CLASSE": "PLANTIO" }, "geometry": { "type": "Point", "coordinates": [ -47.135192095459018, -25.578780202268106 ] } },
{ "type": "Feature", "properties": { "CLASSE": "PLANTIO" }, "geometry": { "type": "Point", "coordinates": [ -47.135131929416453, -25.578779624381021 ] } },
{ "type": "Feature", "properties": { "CLASSE": "PLANTIO" }, "geometry": { "type": "Point", "coordinates": [ -47.13507746340234, -25.578778987217838 ] } },
{ "type": "Feature", "properties": { "CLASSE": "PLANTIO" }, "geometry": { "type": "Point", "coordinates": [ -47.135097326821992, -25.578780352803882 ] } },
{ "type": "Feature", "properties": { "CLASSE": "PLANTIO" }, "geometry": { "type": "Point", "coordinates": [ -47.135061655902973, -25.578781698275179 ] } },
{ "type": "Feature", "properties": { "CLASSE": "PLANTIO" }, "geometry": { "type": "Point", "coordinates": [ -47.1351175763821, -25.578782604289245 ] } },
{ "type": "Feature", "properties": { "CLASSE": "PLANTIO" }, "geometry": { "type": "Point", "coordinates": [ -47.135155588617955, -25.578784685816672 ] } },
{ "type": "Feature", "properties": { "CLASSE": "PLANTIO" }, "geometry": { "type": "Point", "coordinates": [ -47.135047575251953, -25.578784114750661 ] } },
{ "type": "Feature", "properties": { "CLASSE": "PLANTIO" }, "geometry": { "type": "Point", "coordinates": [ -47.135197717159883, -25.578786185912442 ] } },
{ "type": "Feature", "properties": { "CLASSE": "PLANTIO" }, "geometry": { "type": "Point", "coordinates": [ -47.135179694338447, -25.578785975094402 ] } },
{ "type": "Feature", "properties": { "CLASSE": "PLANTIO" }, "geometry": { "type": "Point", "coordinates": [ -47.135139394979156, -25.578786510985903 ] } },
{ "type": "Feature", "properties": { "CLASSE": "PLANTIO" }, "geometry": { "type": "Point", "coordinates": [ -47.135084791542532, -25.578786249957247 ] } },
{ "type": "Feature", "properties": { "CLASSE": "PLANTIO" }, "geometry": { "type": "Point", "coordinates": [ -47.135104789117207, -25.578787491198522 ] } },
{ "type": "Feature", "properties": { "CLASSE": "PLANTIO" }, "geometry": { "type": "Point", "coordinates": [ -47.135068861312604, -25.57878820410545 ] } },
{ "type": "Feature", "properties": { "CLASSE": "PLANTIO" }, "geometry": { "type": "Point", "coordinates": [ -47.135124580568714, -25.578789296629502 ] } },
{ "type": "Feature", "properties": { "CLASSE": "PLANTIO" }, "geometry": { "type": "Point", "coordinates": [ -47.135203019797636, -25.578791221480778 ] } },
{ "type": "Feature", "properties": { "CLASSE": "PLANTIO" }, "geometry": { "type": "Point", "coordinates": [ -47.135163056631399, -25.578791383579478 ] } },
{ "type": "Feature", "properties": { "CLASSE": "PLANTIO" }, "geometry": { "type": "Point", "coordinates": [ -47.13505474793817, -25.578790588721205 ] } },
{ "type": "Feature", "properties": { "CLASSE": "PLANTIO" }, "geometry": { "type": "Point", "coordinates": [ -47.135186498934928, -25.578792728051113 ] } },
{ "type": "Feature", "properties": { "CLASSE": "PLANTIO" }, "geometry": { "type": "Point", "coordinates": [ -47.135146804073834, -25.578792641454843 ] } },
{ "type": "Feature", "properties": { "CLASSE": "PLANTIO" }, "geometry": { "type": "Point", "coordinates": [ -47.135091995323066, -25.578792881678972 ] } },
{ "type": "Feature", "properties": { "CLASSE": "PLANTIO" }, "geometry": { "type": "Point", "coordinates": [ -47.13511205752846, -25.578794249587077 ] } },
{ "type": "Feature", "properties": { "CLASSE": "PLANTIO" }, "geometry": { "type": "Point", "coordinates": [ -47.135076192716561, -25.578795215058935 ] } },
{ "type": "Feature", "properties": { "CLASSE": "PLANTIO" }, "geometry": { "type": "Point", "coordinates": [ -47.135131979055245, -25.578796245406679 ] } },
{ "type": "Feature", "properties": { "CLASSE": "PLANTIO" }, "geometry": { "type": "Point", "coordinates": [ -47.135170188449067, -25.578798455146412 ] } },
{ "type": "Feature", "properties": { "CLASSE": "PLANTIO" }, "geometry": { "type": "Point", "coordinates": [ -47.135154281062015, -25.578798646804913 ] } },
{ "type": "Feature", "properties": { "CLASSE": "PLANTIO" }, "geometry": { "type": "Point", "coordinates": [ -47.135062905555472, -25.578797766732304 ] } },
{ "type": "Feature", "properties": { "CLASSE": "PLANTIO" }, "geometry": { "type": "Point", "coordinates": [ -47.135194226282941, -25.578799869538386 ] } },
{ "type": "Feature", "properties": { "CLASSE": "PLANTIO" }, "geometry": { "type": "Point", "coordinates": [ -47.135099391358509, -25.578800019299038 ] } },
{ "type": "Feature", "properties": { "CLASSE": "PLANTIO" }, "geometry": { "type": "Point", "coordinates": [ -47.135119460093748, -25.578800883631956 ] } },
{ "type": "Feature", "properties": { "CLASSE": "PLANTIO" }, "geometry": { "type": "Point", "coordinates": [ -47.135083332684545, -25.578801657166256 ] } },
{ "type": "Feature", "properties": { "CLASSE": "PLANTIO" }, "geometry": { "type": "Point", "coordinates": [ -47.13513965074393, -25.578802567816858 ] } },
{ "type": "Feature", "properties": { "CLASSE": "PLANTIO" }, "geometry": { "type": "Point", "coordinates": [ -47.135041361568355, -25.578609086705676 ] } },
{ "type": "Feature", "properties": { "CLASSE": "PLANTIO" }, "geometry": { "type": "Point", "coordinates": [ -47.134900739508566, -25.578608826480522 ] } },
{ "type": "Feature", "properties": { "CLASSE": "PLANTIO" }, "geometry": { "type": "Point", "coordinates": [ -47.135024377744131, -25.578610524872325 ] } },
{ "type": "Feature", "properties": { "CLASSE": "PLANTIO" }, "geometry": { "type": "Point", "coordinates": [ -47.134922068756559, -25.578609579696497 ] } },
{ "type": "Feature", "properties": { "CLASSE": "PLANTIO" }, "geometry": { "type": "Point", "coordinates": [ -47.134880321581534, -25.578609343046391 ] } },
{ "type": "Feature", "properties": { "CLASSE": "PLANTIO" }, "geometry": { "type": "Point", "coordinates": [ -47.134986732165473, -25.578610839914788 ] } },
{ "type": "Feature", "properties": { "CLASSE": "PLANTIO" }, "geometry": { "type": "Point", "coordinates": [ -47.134963271163905, -25.578610943162225 ] } },
{ "type": "Feature", "properties": { "CLASSE": "PLANTIO" }, "geometry": { "type": "Point", "coordinates": [ -47.13500870443518, -25.578613111579465 ] } },
{ "type": "Feature", "properties": { "CLASSE": "PLANTIO" }, "geometry": { "type": "Point", "coordinates": [ -47.134945884881944, -25.578612754339979 ] } },
{ "type": "Feature", "properties": { "CLASSE": "PLANTIO" }, "geometry": { "type": "Point", "coordinates": [ -47.13486451085344, -25.578612305853127 ] } },
{ "type": "Feature", "properties": { "CLASSE": "PLANTIO" }, "geometry": { "type": "Point", "coordinates": [ -47.134929413184736, -25.578615583514264 ] } },
{ "type": "Feature", "properties": { "CLASSE": "PLANTIO" }, "geometry": { "type": "Point", "coordinates": [ -47.134908342446522, -25.578615336974636 ] } },
{ "type": "Feature", "properties": { "CLASSE": "PLANTIO" }, "geometry": { "type": "Point", "coordinates": [ -47.135031051420384, -25.578617150396166 ] } },
{ "type": "Feature", "properties": { "CLASSE": "PLANTIO" }, "geometry": { "type": "Point", "coordinates": [ -47.134888724536296, -25.57861548516604 ] } },
{ "type": "Feature", "properties": { "CLASSE": "PLANTIO" }, "geometry": { "type": "Point", "coordinates": [ -47.134849695659284, -25.57861515439329 ] } },
{ "type": "Feature", "properties": { "CLASSE": "PLANTIO" }, "geometry": { "type": "Point", "coordinates": [ -47.13497127819808, -25.578616954728805 ] } },
{ "type": "Feature", "properties": { "CLASSE": "PLANTIO" }, "geometry": { "type": "Point", "coordinates": [ -47.134994335112566, -25.578617350401235 ] } },
{ "type": "Feature", "properties": { "CLASSE": "PLANTIO" }, "geometry": { "type": "Point", "coordinates": [ -47.134953895178867, -25.578618514121544 ] } },
{ "type": "Feature", "properties": { "CLASSE": "PLANTIO" }, "geometry": { "type": "Point", "coordinates": [ -47.134872519510409, -25.578618191535803 ] } },
{ "type": "Feature", "properties": { "CLASSE": "PLANTIO" }, "geometry": { "type": "Point", "coordinates": [ -47.135016300856748, -25.578620125637389 ] } },
{ "type": "Feature", "properties": { "CLASSE": "PLANTIO" }, "geometry": { "type": "Point", "coordinates": [ -47.134937817777242, -25.578621599735712 ] } },
{ "type": "Feature", "properties": { "CLASSE": "PLANTIO" }, "geometry": { "type": "Point", "coordinates": [ -47.13491661125218, -25.578621603434296 ] } },
{ "type": "Feature", "properties": { "CLASSE": "PLANTIO" }, "geometry": { "type": "Point", "coordinates": [ -47.134896198217746, -25.578621742324021 ] } },
{ "type": "Feature", "properties": { "CLASSE": "PLANTIO" }, "geometry": { "type": "Point", "coordinates": [ -47.135038654372714, -25.578623660878705 ] } },
{ "type": "Feature", "properties": { "CLASSE": "PLANTIO" }, "geometry": { "type": "Point", "coordinates": [ -47.134857762413837, -25.578621670319368 ] } },
{ "type": "Feature", "properties": { "CLASSE": "PLANTIO" }, "geometry": { "type": "Point", "coordinates": [ -47.134979281969507, -25.578623218081376 ] } },
{ "type": "Feature", "properties": { "CLASSE": "PLANTIO" }, "geometry": { "type": "Point", "coordinates": [ -47.135001275459103, -25.578623853134939 ] } },
{ "type": "Feature", "properties": { "CLASSE": "PLANTIO" }, "geometry": { "type": "Point", "coordinates": [ -47.134961501387522, -25.578624772824305 ] } },
{ "type": "Feature", "properties": { "CLASSE": "PLANTIO" }, "geometry": { "type": "Point", "coordinates": [ -47.134880789945001, -25.578624332105694 ] } },
{ "type": "Feature", "properties": { "CLASSE": "PLANTIO" }, "geometry": { "type": "Point", "coordinates": [ -47.135022968004961, -25.578627254735345 ] } },
{ "type": "Feature", "properties": { "CLASSE": "PLANTIO" }, "geometry": { "type": "Point", "coordinates": [ -47.134946353259508, -25.57862774340024 ] } },
{ "type": "Feature", "properties": { "CLASSE": "PLANTIO" }, "geometry": { "type": "Point", "coordinates": [ -47.134904607704328, -25.578627380868863 ] } },
{ "type": "Feature", "properties": { "CLASSE": "PLANTIO" }, "geometry": { "type": "Point", "coordinates": [ -47.134924881691532, -25.578627743999878 ] } },
{ "type": "Feature", "properties": { "CLASSE": "PLANTIO" }, "geometry": { "type": "Point", "coordinates": [ -47.134865771071148, -25.578627556002786 ] } },
{ "type": "Feature", "properties": { "CLASSE": "PLANTIO" }, "geometry": { "type": "Point", "coordinates": [ -47.134986754028709, -25.578629601124796 ] } },
{ "type": "Feature", "properties": { "CLASSE": "PLANTIO" }, "geometry": { "type": "Point", "coordinates": [ -47.135009272706185, -25.578630620058142 ] } },
{ "type": "Feature", "properties": { "CLASSE": "PLANTIO" }, "geometry": { "type": "Point", "coordinates": [ -47.134969508422984, -25.578630784391184 ] } },
{ "type": "Feature", "properties": { "CLASSE": "PLANTIO" }, "geometry": { "type": "Point", "coordinates": [ -47.134888792075827, -25.578630721360256 ] } },
{ "type": "Feature", "properties": { "CLASSE": "PLANTIO" }, "geometry": { "type": "Point", "coordinates": [ -47.135030049035699, -25.578633129550404 ] } },
{ "type": "Feature", "properties": { "CLASSE": "PLANTIO" }, "geometry": { "type": "Point", "coordinates": [ -47.134932893620231, -25.578633377890263 ] } },
{ "type": "Feature", "properties": { "CLASSE": "PLANTIO" }, "geometry": { "type": "Point", "coordinates": [ -47.134911953764728, -25.578633258794966 ] } },
{ "type": "Feature", "properties": { "CLASSE": "PLANTIO" }, "geometry": { "type": "Point", "coordinates": [ -47.134954224509144, -25.578634005204776 ] } },
{ "type": "Feature", "properties": { "CLASSE": "PLANTIO" }, "geometry": { "type": "Point", "coordinates": [ -47.134873643944928, -25.5786336919215 ] } },
{ "type": "Feature", "properties": { "CLASSE": "PLANTIO" }, "geometry": { "type": "Point", "coordinates": [ -47.134994355345611, -25.57863623750476 ] } },
{ "type": "Feature", "properties": { "CLASSE": "PLANTIO" }, "geometry": { "type": "Point", "coordinates": [ -47.135016340679826, -25.578637502021213 ] } },
{ "type": "Feature", "properties": { "CLASSE": "PLANTIO" }, "geometry": { "type": "Point", "coordinates": [ -47.134977369882762, -25.578637801553672 ] } },
{ "type": "Feature", "properties": { "CLASSE": "PLANTIO" }, "geometry": { "type": "Point", "coordinates": [ -47.134897060881187, -25.578636987822001 ] } },
{ "type": "Feature", "properties": { "CLASSE": "PLANTIO" }, "geometry": { "type": "Point", "coordinates": [ -47.135038041390935, -25.578640274151066 ] } },
{ "type": "Feature", "properties": { "CLASSE": "PLANTIO" }, "geometry": { "type": "Point", "coordinates": [ -47.134940499828268, -25.578639636595039 ] } },
{ "type": "Feature", "properties": { "CLASSE": "PLANTIO" }, "geometry": { "type": "Point", "coordinates": [ -47.13491995589969, -25.578639648046668 ] } },
{ "type": "Feature", "properties": { "CLASSE": "PLANTIO" }, "geometry": { "type": "Point", "coordinates": [ -47.134961961607686, -25.578640391351477 ] } },
{ "type": "Feature", "properties": { "CLASSE": "PLANTIO" }, "geometry": { "type": "Point", "coordinates": [ -47.134881255043823, -25.578639572951616 ] } },
{ "type": "Feature", "properties": { "CLASSE": "PLANTIO" }, "geometry": { "type": "Point", "coordinates": [ -47.135001955031932, -25.57864299977745 ] } },
{ "type": "Feature", "properties": { "CLASSE": "PLANTIO" }, "geometry": { "type": "Point", "coordinates": [ -47.135023411918873, -25.578644132197045 ] } },
{ "type": "Feature", "properties": { "CLASSE": "PLANTIO" }, "geometry": { "type": "Point", "coordinates": [ -47.134904673614841, -25.578642742956699 ] } },
{ "type": "Feature", "properties": { "CLASSE": "PLANTIO" }, "geometry": { "type": "Point", "coordinates": [ -47.134984712686901, -25.578643931260238 ] } },
{ "type": "Feature", "properties": { "CLASSE": "PLANTIO" }, "geometry": { "type": "Point", "coordinates": [ -47.134948770271976, -25.578645777158449 ] } },
{ "type": "Feature", "properties": { "CLASSE": "PLANTIO" }, "geometry": { "type": "Point", "coordinates": [ -47.134889664531016, -25.578645211498163 ] } },
{ "type": "Feature", "properties": { "CLASSE": "PLANTIO" }, "geometry": { "type": "Point", "coordinates": [ -47.134927958036158, -25.578646037297666 ] } },
{ "type": "Feature", "properties": { "CLASSE": "PLANTIO" }, "geometry": { "type": "Point", "coordinates": [ -47.134970361309854, -25.578646785249955 ] } },
{ "type": "Feature", "properties": { "CLASSE": "PLANTIO" }, "geometry": { "type": "Point", "coordinates": [ -47.135008890485452, -25.57864988019081 ] } },
{ "type": "Feature", "properties": { "CLASSE": "PLANTIO" }, "geometry": { "type": "Point", "coordinates": [ -47.134912415605818, -25.578648751428009 ] } },
{ "type": "Feature", "properties": { "CLASSE": "PLANTIO" }, "geometry": { "type": "Point", "coordinates": [ -47.135030879088639, -25.578650892916841 ] } },
{ "type": "Feature", "properties": { "CLASSE": "PLANTIO" }, "geometry": { "type": "Point", "coordinates": [ -47.134991649770704, -25.578650685781632 ] } },
{ "type": "Feature", "properties": { "CLASSE": "PLANTIO" }, "geometry": { "type": "Point", "coordinates": [ -47.134956510635405, -25.578651911519074 ] } },
{ "type": "Feature", "properties": { "CLASSE": "PLANTIO" }, "geometry": { "type": "Point", "coordinates": [ -47.134897537408975, -25.578651347414812 ] } },
{ "type": "Feature", "properties": { "CLASSE": "PLANTIO" }, "geometry": { "type": "Point", "coordinates": [ -47.134936228479312, -25.57865217786237 ] } },
{ "type": "Feature", "properties": { "CLASSE": "PLANTIO" }, "geometry": { "type": "Point", "coordinates": [ -47.134977159343578, -25.578654041795438 ] } },
{ "type": "Feature", "properties": { "CLASSE": "PLANTIO" }, "geometry": { "type": "Point", "coordinates": [ -47.134920424271222, -25.57865463710646 ] } },
{ "type": "Feature", "properties": { "CLASSE": "PLANTIO" }, "geometry": { "type": "Point", "coordinates": [ -47.135015960092829, -25.57865663626071 ] } },
{ "type": "Feature", "properties": { "CLASSE": "PLANTIO" }, "geometry": { "type": "Point", "coordinates": [ -47.135038745453258, -25.578657532393798 ] } },
{ "type": "Feature", "properties": { "CLASSE": "PLANTIO" }, "geometry": { "type": "Point", "coordinates": [ -47.134998848632669, -25.578657695190099 ] } },
{ "type": "Feature", "properties": { "CLASSE": "PLANTIO" }, "geometry": { "type": "Point", "coordinates": [ -47.134964380256449, -25.578658299216237 ] } },
{ "type": "Feature", "properties": { "CLASSE": "PLANTIO" }, "geometry": { "type": "Point", "coordinates": [ -47.134944369667807, -25.578658065089115 ] } },
{ "type": "Feature", "properties": { "CLASSE": "PLANTIO" }, "geometry": { "type": "Point", "coordinates": [ -47.134905407023908, -25.578657735117449 ] } },
{ "type": "Feature", "properties": { "CLASSE": "PLANTIO" }, "geometry": { "type": "Point", "coordinates": [ -47.134984361468405, -25.578660799418454 ] } },
{ "type": "Feature", "properties": { "CLASSE": "PLANTIO" }, "geometry": { "type": "Point", "coordinates": [ -47.134928424777129, -25.578661152250898 ] } },
{ "type": "Feature", "properties": { "CLASSE": "PLANTIO" }, "geometry": { "type": "Point", "coordinates": [ -47.135023289846501, -25.578663773110947 ] } },
{ "type": "Feature", "properties": { "CLASSE": "PLANTIO" }, "geometry": { "type": "Point", "coordinates": [ -47.13500631253703, -25.578664707698863 ] } },
{ "type": "Feature", "properties": { "CLASSE": "PLANTIO" }, "geometry": { "type": "Point", "coordinates": [ -47.134913281536939, -25.578663745139416 ] } },
{ "type": "Feature", "properties": { "CLASSE": "PLANTIO" }, "geometry": { "type": "Point", "coordinates": [ -47.134951710838514, -25.578664320692052 ] } },
{ "type": "Feature", "properties": { "CLASSE": "PLANTIO" }, "geometry": { "type": "Point", "coordinates": [ -47.13497145475614, -25.578664677609829 ] } },
{ "type": "Feature", "properties": { "CLASSE": "PLANTIO" }, "geometry": { "type": "Point", "coordinates": [ -47.134991830267651, -25.578667434248452 ] } },
{ "type": "Feature", "properties": { "CLASSE": "PLANTIO" }, "geometry": { "type": "Point", "coordinates": [ -47.134936831006776, -25.578667042579571 ] } },
{ "type": "Feature", "properties": { "CLASSE": "PLANTIO" }, "geometry": { "type": "Point", "coordinates": [ -47.135030763546141, -25.578670030257499 ] } },
{ "type": "Feature", "properties": { "CLASSE": "PLANTIO" }, "geometry": { "type": "Point", "coordinates": [ -47.134921555244951, -25.57866963391907 ] } },
{ "type": "Feature", "properties": { "CLASSE": "PLANTIO" }, "geometry": { "type": "Point", "coordinates": [ -47.135013913859474, -25.578671344077392 ] } },
{ "type": "Feature", "properties": { "CLASSE": "PLANTIO" }, "geometry": { "type": "Point", "coordinates": [ -47.134959446307747, -25.578670832732612 ] } },
{ "type": "Feature", "properties": { "CLASSE": "PLANTIO" }, "geometry": { "type": "Point", "coordinates": [ -47.134978653617168, -25.578671687020087 ] } },
{ "type": "Feature", "properties": { "CLASSE": "PLANTIO" }, "geometry": { "type": "Point", "coordinates": [ -47.13494522907714, -25.578673562374163 ] } },
{ "type": "Feature", "properties": { "CLASSE": "PLANTIO" }, "geometry": { "type": "Point", "coordinates": [ -47.13499903076324, -25.578674317763692 ] } },
{ "type": "Feature", "properties": { "CLASSE": "PLANTIO" }, "geometry": { "type": "Point", "coordinates": [ -47.134928899678847, -25.578675637737412 ] } },
{ "type": "Feature", "properties": { "CLASSE": "PLANTIO" }, "geometry": { "type": "Point", "coordinates": [ -47.135037962414216, -25.578677039662857 ] } },
{ "type": "Feature", "properties": { "CLASSE": "PLANTIO" }, "geometry": { "type": "Point", "coordinates": [ -47.134966517543859, -25.578677462913404 ] } },
{ "type": "Feature", "properties": { "CLASSE": "PLANTIO" }, "geometry": { "type": "Point", "coordinates": [ -47.135021112725809, -25.578678353484172 ] } },
{ "type": "Feature", "properties": { "CLASSE": "PLANTIO" }, "geometry": { "type": "Point", "coordinates": [ -47.134985718327059, -25.578678820772705 ] } },
{ "type": "Feature", "properties": { "CLASSE": "PLANTIO" }, "geometry": { "type": "Point", "coordinates": [ -47.135006236156386, -25.578680823598329 ] } },
{ "type": "Feature", "properties": { "CLASSE": "PLANTIO" }, "geometry": { "type": "Point", "coordinates": [ -47.134951768597887, -25.578680312247418 ] } },
{ "type": "Feature", "properties": { "CLASSE": "PLANTIO" }, "geometry": { "type": "Point", "coordinates": [ -47.134936500994186, -25.578682274122947 ] } },
{ "type": "Feature", "properties": { "CLASSE": "PLANTIO" }, "geometry": { "type": "Point", "coordinates": [ -47.135028979092205, -25.578684992962284 ] } },
{ "type": "Feature", "properties": { "CLASSE": "PLANTIO" }, "geometry": { "type": "Point", "coordinates": [ -47.134974110702842, -25.57868472876233 ] } },
{ "type": "Feature", "properties": { "CLASSE": "PLANTIO" }, "geometry": { "type": "Point", "coordinates": [ -47.134993447273033, -25.578685836383691 ] } },
{ "type": "Feature", "properties": { "CLASSE": "PLANTIO" }, "geometry": { "type": "Point", "coordinates": [ -47.134959103242949, -25.578687071423278 ] } },
{ "type": "Feature", "properties": { "CLASSE": "PLANTIO" }, "geometry": { "type": "Point", "coordinates": [ -47.135014362666411, -25.578687843858731 ] } },
{ "type": "Feature", "properties": { "CLASSE": "PLANTIO" }, "geometry": { "type": "Point", "coordinates": [ -47.134944504768967, -25.578688537479444 ] } },
{ "type": "Feature", "properties": { "CLASSE": "PLANTIO" }, "geometry": { "type": "Point", "coordinates": [ -47.135036181225452, -25.5786917505812 ] } },
{ "type": "Feature", "properties": { "CLASSE": "PLANTIO" }, "geometry": { "type": "Point", "coordinates": [ -47.134981445350725, -25.578691487936318 ] } },
{ "type": "Feature", "properties": { "CLASSE": "PLANTIO" }, "geometry": { "type": "Point", "coordinates": [ -47.134999985167852, -25.578692712146758 ] } },
{ "type": "Feature", "properties": { "CLASSE": "PLANTIO" }, "geometry": { "type": "Point", "coordinates": [ -47.135021033084186, -25.578694721170635 ] } },
{ "type": "Feature", "properties": { "CLASSE": "PLANTIO" }, "geometry": { "type": "Point", "coordinates": [ -47.134966699666258, -25.578694085486251 ] } },
{ "type": "Feature", "properties": { "CLASSE": "PLANTIO" }, "geometry": { "type": "Point", "coordinates": [ -47.134951967038127, -25.578695675886543 ] } },
{ "type": "Feature", "properties": { "CLASSE": "PLANTIO" }, "geometry": { "type": "Point", "coordinates": [ -47.13498824665372, -25.578698492694596 ] } },
{ "type": "Feature", "properties": { "CLASSE": "PLANTIO" }, "geometry": { "type": "Point", "coordinates": [ -47.135008119838652, -25.578699102941108 ] } },
{ "type": "Feature", "properties": { "CLASSE": "PLANTIO" }, "geometry": { "type": "Point", "coordinates": [ -47.13502863441115, -25.578701357548123 ] } },
{ "type": "Feature", "properties": { "CLASSE": "PLANTIO" }, "geometry": { "type": "Point", "coordinates": [ -47.134973770905255, -25.578700715666642 ] } },
{ "type": "Feature", "properties": { "CLASSE": "PLANTIO" }, "geometry": { "type": "Point", "coordinates": [ -47.134959434205214, -25.578702436613032 ] } },
{ "type": "Feature", "properties": { "CLASSE": "PLANTIO" }, "geometry": { "type": "Point", "coordinates": [ -47.134995715457038, -25.578705127524586 ] } },
{ "type": "Feature", "properties": { "CLASSE": "PLANTIO" }, "geometry": { "type": "Point", "coordinates": [ -47.135015321970982, -25.57870586056189 ] } },
{ "type": "Feature", "properties": { "CLASSE": "PLANTIO" }, "geometry": { "type": "Point", "coordinates": [ -47.135035839809866, -25.578707863380494 ] } },
{ "type": "Feature", "properties": { "CLASSE": "PLANTIO" }, "geometry": { "type": "Point", "coordinates": [ -47.134981108818799, -25.578707223054103 ] } },
{ "type": "Feature", "properties": { "CLASSE": "PLANTIO" }, "geometry": { "type": "Point", "coordinates": [ -47.134966636332642, -25.578709194237923 ] } },
{ "type": "Feature", "properties": { "CLASSE": "PLANTIO" }, "geometry": { "type": "Point", "coordinates": [ -47.135003185893837, -25.578711636460639 ] } },
{ "type": "Feature", "properties": { "CLASSE": "PLANTIO" }, "geometry": { "type": "Point", "coordinates": [ -47.135022923298436, -25.578712496939993 ] } },
{ "type": "Feature", "properties": { "CLASSE": "PLANTIO" }, "geometry": { "type": "Point", "coordinates": [ -47.134988445101634, -25.578713856334339 ] } },
{ "type": "Feature", "properties": { "CLASSE": "PLANTIO" }, "geometry": { "type": "Point", "coordinates": [ -47.134973967717826, -25.578716205199459 ] } },
{ "type": "Feature", "properties": { "CLASSE": "PLANTIO" }, "geometry": { "type": "Point", "coordinates": [ -47.135010517283298, -25.578718647419073 ] } },
{ "type": "Feature", "properties": { "CLASSE": "PLANTIO" }, "geometry": { "type": "Point", "coordinates": [ -47.135030123801585, -25.578719380453002 ] } },
{ "type": "Feature", "properties": { "CLASSE": "PLANTIO" }, "geometry": { "type": "Point", "coordinates": [ -47.134995383824133, -25.578720484962645 ] } },
{ "type": "Feature", "properties": { "CLASSE": "PLANTIO" }, "geometry": { "type": "Point", "coordinates": [ -47.134981439785534, -25.578722588244169 ] } },
{ "type": "Feature", "properties": { "CLASSE": "PLANTIO" }, "geometry": { "type": "Point", "coordinates": [ -47.135018251132102, -25.578725285348128 ] } },
{ "type": "Feature", "properties": { "CLASSE": "PLANTIO" }, "geometry": { "type": "Point", "coordinates": [ -47.135037193417553, -25.578726136521734 ] } },
{ "type": "Feature", "properties": { "CLASSE": "PLANTIO" }, "geometry": { "type": "Point", "coordinates": [ -47.135002715213574, -25.578727495921825 ] } },
{ "type": "Feature", "properties": { "CLASSE": "PLANTIO" }, "geometry": { "type": "Point", "coordinates": [ -47.134988111834808, -25.578729339665525 ] } },
{ "type": "Feature", "properties": { "CLASSE": "PLANTIO" }, "geometry": { "type": "Point", "coordinates": [ -47.135025721573207, -25.578731794282376 ] } },
{ "type": "Feature", "properties": { "CLASSE": "PLANTIO" }, "geometry": { "type": "Point", "coordinates": [ -47.135009918980003, -25.578734127649952 ] } },
{ "type": "Feature", "properties": { "CLASSE": "PLANTIO" }, "geometry": { "type": "Point", "coordinates": [ -47.134995304175362, -25.57873685264833 ] } },
{ "type": "Feature", "properties": { "CLASSE": "PLANTIO" }, "geometry": { "type": "Point", "coordinates": [ -47.135033460320969, -25.578738054530106 ] } },
{ "type": "Feature", "properties": { "CLASSE": "PLANTIO" }, "geometry": { "type": "Point", "coordinates": [ -47.135016990227186, -25.578740757827106 ] } },
{ "type": "Feature", "properties": { "CLASSE": "PLANTIO" }, "geometry": { "type": "Point", "coordinates": [ -47.135003172177079, -25.578743366236026 ] } },
{ "type": "Feature", "properties": { "CLASSE": "PLANTIO" }, "geometry": { "type": "Point", "coordinates": [ -47.13504012258511, -25.578745561307713 ] } },
{ "type": "Feature", "properties": { "CLASSE": "PLANTIO" }, "geometry": { "type": "Point", "coordinates": [ -47.135024720814869, -25.578747647542478 ] } },
{ "type": "Feature", "properties": { "CLASSE": "PLANTIO" }, "geometry": { "type": "Point", "coordinates": [ -47.135010109271711, -25.57875012075673 ] } },
{ "type": "Feature", "properties": { "CLASSE": "PLANTIO" }, "geometry": { "type": "Point", "coordinates": [ -47.135031793696854, -25.57875415182518 ] } },
{ "type": "Feature", "properties": { "CLASSE": "PLANTIO" }, "geometry": { "type": "Point", "coordinates": [ -47.135018230893394, -25.578757518697479 ] } },
{ "type": "Feature", "properties": { "CLASSE": "PLANTIO" }, "geometry": { "type": "Point", "coordinates": [ -47.135039511231497, -25.578762048686173 ] } },
{ "type": "Feature", "properties": { "CLASSE": "PLANTIO" }, "geometry": { "type": "Point", "coordinates": [ -47.135025702969642, -25.578763901738668 ] } },
{ "type": "Feature", "properties": { "CLASSE": "PLANTIO" }, "geometry": { "type": "Point", "coordinates": [ -47.135032244138472, -25.578770525713182 ] } },
{ "type": "Feature", "properties": { "CLASSE": "PLANTIO" }, "geometry": { "type": "Point", "coordinates": [ -47.135039974730802, -25.578777415427446 ] } },
{ "type": "Feature", "properties": { "CLASSE": "PLANTIO" }, "geometry": { "type": "Point", "coordinates": [ -47.135178119472243, -25.578805221280291 ] } },
{ "type": "Feature", "properties": { "CLASSE": "PLANTIO" }, "geometry": { "type": "Point", "coordinates": [ -47.135070241039557, -25.578804462952981 ] } },
{ "type": "Feature", "properties": { "CLASSE": "PLANTIO" }, "geometry": { "type": "Point", "coordinates": [ -47.135161274647331, -25.578806157449264 ] } },
{ "type": "Feature", "properties": { "CLASSE": "PLANTIO" }, "geometry": { "type": "Point", "coordinates": [ -47.135106795554904, -25.578806527451693 ] } },
{ "type": "Feature", "properties": { "CLASSE": "PLANTIO" }, "geometry": { "type": "Point", "coordinates": [ -47.135126660615597, -25.578807767137626 ] } },
{ "type": "Feature", "properties": { "CLASSE": "PLANTIO" }, "geometry": { "type": "Point", "coordinates": [ -47.135091133625778, -25.578808232917922 ] } },
{ "type": "Feature", "properties": { "CLASSE": "PLANTIO" }, "geometry": { "type": "Point", "coordinates": [ -47.135147183385989, -25.578809392249681 ] } },
{ "type": "Feature", "properties": { "CLASSE": "PLANTIO" }, "geometry": { "type": "Point", "coordinates": [ -47.135185459048657, -25.578811602757703 ] } },
{ "type": "Feature", "properties": { "CLASSE": "PLANTIO" }, "geometry": { "type": "Point", "coordinates": [ -47.13507757570909, -25.578811222119775 ] } },
{ "type": "Feature", "properties": { "CLASSE": "PLANTIO" }, "geometry": { "type": "Point", "coordinates": [ -47.135168483333096, -25.578812411484591 ] } },
{ "type": "Feature", "properties": { "CLASSE": "PLANTIO" }, "geometry": { "type": "Point", "coordinates": [ -47.135113997707776, -25.578813285065102 ] } },
{ "type": "Feature", "properties": { "CLASSE": "PLANTIO" }, "geometry": { "type": "Point", "coordinates": [ -47.13513413597147, -25.578813898382982 ] } },
{ "type": "Feature", "properties": { "CLASSE": "PLANTIO" }, "geometry": { "type": "Point", "coordinates": [ -47.135098337409033, -25.578814864639291 ] } },
{ "type": "Feature", "properties": { "CLASSE": "PLANTIO" }, "geometry": { "type": "Point", "coordinates": [ -47.135154256286249, -25.578815896522784 ] } },
{ "type": "Feature", "properties": { "CLASSE": "PLANTIO" }, "geometry": { "type": "Point", "coordinates": [ -47.135084646970412, -25.578817852291991 ] } },
{ "type": "Feature", "properties": { "CLASSE": "PLANTIO" }, "geometry": { "type": "Point", "coordinates": [ -47.135175814750383, -25.578819422429795 ] } },
{ "type": "Feature", "properties": { "CLASSE": "PLANTIO" }, "geometry": { "type": "Point", "coordinates": [ -47.135121733208948, -25.578819797092244 ] } },
{ "type": "Feature", "properties": { "CLASSE": "PLANTIO" }, "geometry": { "type": "Point", "coordinates": [ -47.135141334864286, -25.578820907780912 ] } },
{ "type": "Feature", "properties": { "CLASSE": "PLANTIO" }, "geometry": { "type": "Point", "coordinates": [ -47.135106071276844, -25.578821502561244 ] } },
{ "type": "Feature", "properties": { "CLASSE": "PLANTIO" }, "geometry": { "type": "Point", "coordinates": [ -47.135161852743906, -25.578822910569606 ] } },
{ "type": "Feature", "properties": { "CLASSE": "PLANTIO" }, "geometry": { "type": "Point", "coordinates": [ -47.135092906024525, -25.578824874096522 ] } },
{ "type": "Feature", "properties": { "CLASSE": "PLANTIO" }, "geometry": { "type": "Point", "coordinates": [ -47.135129202038115, -25.578826431911622 ] } },
{ "type": "Feature", "properties": { "CLASSE": "PLANTIO" }, "geometry": { "type": "Point", "coordinates": [ -47.135148136196101, -25.578827912527665 ] } },
{ "type": "Feature", "properties": { "CLASSE": "PLANTIO" }, "geometry": { "type": "Point", "coordinates": [ -47.135113275062906, -25.578828134281466 ] } },
{ "type": "Feature", "properties": { "CLASSE": "PLANTIO" }, "geometry": { "type": "Point", "coordinates": [ -47.135169048377058, -25.578830171752045 ] } },
{ "type": "Feature", "properties": { "CLASSE": "PLANTIO" }, "geometry": { "type": "Point", "coordinates": [ -47.135099848031693, -25.57883125093057 ] } },
{ "type": "Feature", "properties": { "CLASSE": "PLANTIO" }, "geometry": { "type": "Point", "coordinates": [ -47.135136795230338, -25.578833697747505 ] } },
{ "type": "Feature", "properties": { "CLASSE": "PLANTIO" }, "geometry": { "type": "Point", "coordinates": [ -47.135155070050104, -25.578834918824136 ] } },
{ "type": "Feature", "properties": { "CLASSE": "PLANTIO" }, "geometry": { "type": "Point", "coordinates": [ -47.135120079655998, -25.57883488724374 ] } },
{ "type": "Feature", "properties": { "CLASSE": "PLANTIO" }, "geometry": { "type": "Point", "coordinates": [ -47.135107449380492, -25.578837887302249 ] } },
{ "type": "Feature", "properties": { "CLASSE": "PLANTIO" }, "geometry": { "type": "Point", "coordinates": [ -47.135144648570346, -25.578841344363333 ] } },
{ "type": "Feature", "properties": { "CLASSE": "PLANTIO" }, "geometry": { "type": "Point", "coordinates": [ -47.135127546854591, -25.578841647956772 ] } },
{ "type": "Feature", "properties": { "CLASSE": "PLANTIO" }, "geometry": { "type": "Point", "coordinates": [ -47.135114646640687, -25.578845022595971 ] } },
{ "type": "Feature", "properties": { "CLASSE": "PLANTIO" }, "geometry": { "type": "Point", "coordinates": [ -47.135151186494404, -25.5788482201162 ] } },
{ "type": "Feature", "properties": { "CLASSE": "PLANTIO" }, "geometry": { "type": "Point", "coordinates": [ -47.135134870110868, -25.578849288372567 ] } },
{ "type": "Feature", "properties": { "CLASSE": "PLANTIO" }, "geometry": { "type": "Point", "coordinates": [ -47.135121711381501, -25.57885215633889 ] } },
{ "type": "Feature", "properties": { "CLASSE": "PLANTIO" }, "geometry": { "type": "Point", "coordinates": [ -47.135141676339941, -25.578855915439931 ] } },
{ "type": "Feature", "properties": { "CLASSE": "PLANTIO" }, "geometry": { "type": "Point", "coordinates": [ -47.135128776123757, -25.578859290081294 ] } },
{ "type": "Feature", "properties": { "CLASSE": "PLANTIO" }, "geometry": { "type": "Point", "coordinates": [ -47.135135577457518, -25.578866294829332 ] } }
]
}
